X,Y,OBJECTID,Facility,County,Address,City,ZipCode,Type,ResidentialWellsSampled,SiteLead,SiteLeadEmail,SiteLeadPhone,Hyperlink,Longitude,Latitude,Status,GlobalID
-85.621686,43.1053580000001,1,Belmont - House St.,Kent,1855 House Street,Rockford,49341,Landfill,Yes,Leah Gies,giesl1@michigan.gov,616-215-4781,https://www.michigan.gov/pfasresponse/investigations/sites-aoi/kent-county/house-street-disposal-area,-85.621686,43.105358,Final,{FFD13567-4CAC-4D0D-B901-82D957E592D3}
-85.5601819999999,43.122506,2,Rockford Tannery,Kent,123 North Main Street,Rockford,49341,Tannery,No,Leah Gies,giesl1@michigan.gov,616-215-4781,https://www.michigan.gov/pfasresponse/investigations/sites-aoi/kent-county/rockford-tannery,-85.560182,43.122506,Final,{CFC91795-3C71-4421-9DA1-CB87E0B6162D}
-84.78779,44.6266810000001,3,Camp Grayling - Lake Margrethe,Crawford,Camp Grayling - Lake Margrethe Area,Grayling,49738,Military,Yes,Christiaan Bon,BonC@Michigan.gov,989-370-9624,https://www.michigan.gov/pfasresponse/investigations/sites-aoi/crawford-county/camp-grayling-lake-margrethe,-84.78779,44.626681,Final,{680012E1-B56F-4FAF-B1F4-EB2BA7A87C96}
-87.3873,46.3496000000001,4,K.I. Sawyer AFB,Marquette,225 Airport Ave,Gwinn,49841,Military,Yes,William Harmon,HarmonW@Michigan.gov,517-242-2143,https://www.michigan.gov/pfasresponse/investigations/sites-aoi/marquette-county/ki-sawyer-air-force-base,-87.3873,46.3496,Final,{BDB2EA44-8C27-432B-8281-B8F9ADEEE00A}
-83.353421,44.4595340000001,5,Wurtsmith AFB,Iosco,No Address - former Air Force Base,Oscoda,48750,Military,Yes,Beth Place,PlaceB1@Michigan.gov,517-899-7524,https://www.michigan.gov/pfasresponse/investigations/sites-aoi/iosco-county/wurtsmith,-83.353421,44.459534,Final,{725C2D9F-0EC2-4CAE-85AA-9A2E312A37CB}
-83.310559,43.03889,6,Lapeer Plating & Plastics,Lapeer,395 Demille Road,"Lapeer
",48446,Plating,No,Brian Zuber,ZuberB@Michigan.gov,517-388-0267,https://www.michigan.gov/pfasresponse/investigations/sites-aoi/lapeer-county/lapeer-plating-plastics,-83.310559,43.03889,Final,{611EF353-C1CB-4456-BA9D-76EDF25C732A}
-84.587871,42.73954,7,Adams Plating,Ingham,521 N. Rosemary,Lansing,48917,Plating,No,Mark Reimann,ReimannM@Michigan.gov ,517-290-9379,https://www.michigan.gov/pfasresponse/investigations/sites-aoi/ingham-county/adams-plating,-84.587871,42.73954,Final,{6ECE3D2F-6A49-4E72-8A34-3D38D7F85DB8}
-83.4357919999999,45.0729900000001,8,Alpena Hide and Leather Co.,Alpena,817 and 819 W. Miller Street,Alpena,49707,Tannery,No,Janice Adams,AdamsJ1@Michigan.gov ,989-619-4211,"https://www.michigan.gov/pfasresponse/investigations/sites-aoi/alpena-county/alpena-hide-and-leather
",-83.435792,45.07299,Final,{00327F3D-6378-42A1-80BA-0FB5FD52CF24}
-83.349011,44.4403360000001,9,Whispering Pines MHC,Iosco,4263 Bissonette,Oscoda,48750,Military,Yes,Beth Place,PlaceB1@Michigan.gov,517-899-7524,https://www.michigan.gov/pfasresponse/investigations/sites-aoi/iosco-county/oscoda-area,-83.349011,44.440336,Final,{4B85FC24-303F-4E2F-8BD9-3024D95C6EFB}
-83.683883,43.0980260000001,10,Coldwater Road Landfill & Peregrine,Genesee,1245 Coldwater Road,Flint,48458,Landfill,Yes,Nicole Sanabria,SanabriaN@Michigan.gov,517-281-7726,https://www.michigan.gov/pfasresponse/investigations/sites-aoi/genesee-county/coldwater-road-landfill,-83.683883,43.098026,Final,{3B21DB23-AB12-4006-977A-A461947670AC}
-84.7816759999999,43.6127010000001,11,Roosevelt Refinery,Isabella,600 W Pickard Street,Mount Pleasant,48858,Refinery,No,Larry Engelhart,EngelhartL@Michigan.gov ,989-891-6946,https://www.michigan.gov/pfasresponse/investigations/sites-aoi/isabella-county/roosevelt-refinery,-84.781676,43.612701,Final,{8F95949E-CBAD-4914-B89E-439DBE8079FF}
-83.565936829,45.0680388590001,13,Alpena Combat Readiness Center,Alpena,5884 A St.,Alpena,49707,Military,Yes,Christiaan Bon,BonC@Michigan.gov,989-370-9624,https://www.michigan.gov/pfasresponse/investigations/sites-aoi/alpena-county/alpena-crtc,-83.56593683,45.06803886,Final,{690ADDAF-2FF4-4E37-8655-592F9360D72E}
-87.06124303,45.7916888180001,14,Escanaba Defense Fuel Supply Point,Delta,6734 P Road,Escanaba,49829,Military,Yes,William Harmon,HarmonW@Michigan.gov,517-242-2143,https://www.michigan.gov/pfasresponse/investigations/sites-aoi/delta-county/escanaba-dfsp,-87.06124303,45.79168882,Final,{18E80B4E-15AD-4A81-919F-E33869580BB7}
-83.3656855529999,44.4742172430001,15,Van Etten Lake,Iosco,No address - Lake,Oscoda,48750,Military,Yes,Beth Place,PlaceB1@Michigan.gov,517-899-7524,https://www.michigan.gov/pfasresponse/investigations/sites-aoi/iosco-county/oscoda-area,-83.36568555,44.47421724,Final,{1E98D017-DD85-4903-8604-13AD01241B93}
-83.361196282,44.47984324,16,Loud Drive,Iosco,No Address - large area of homes - E. side of Van Etten Lake,Oscoda,48750,MIlitary,Yes,Megan Berry,BerryM5@Michigan.gov,989-295-3877,https://www.michigan.gov/pfasresponse/investigations/sites-aoi/iosco-county/oscoda-area,-83.36119628,44.47984324,Final,{BB2AE1F0-2DF0-486F-AC3A-B5FACF92DF39}
-83.388978358,44.484911821,17,Colbath Road,Iosco,No Address - large area of homes,Oscoda,48750,Fire Related,Yes,Megan Berry,BerryM5@Michigan.gov,989-295-3877,https://www.michigan.gov/pfasresponse/investigations/sites-aoi/iosco-county/oscoda-area,-83.38897836,44.48491182,Final,{724729D3-7AEB-4999-9255-68CE6151342E}
-83.373654583,44.422969068,18,Oscoda Area Schools,Iosco,3550 River Road,Oscoda,48750,Unknown,Yes,Megan Berry,BerryM5Michigan.gov,989-295-3877,https://www.michigan.gov/pfasresponse/investigations/sites-aoi/iosco-county/oscoda-area,-83.37365458,44.42296907,Final,{E84884E7-B99D-4F7E-A142-52085FE81076}
-83.421418473,44.5081149430001,19,McDonald Store Fire (aka F-41),Iosco,No address-business burned-corner of F-41 and King's Corner Road,Oscoda,48750,Fire Related,Yes,Megan Berry,BerryM5@Michigan.gov,989-295-3877,https://www.michigan.gov/pfasresponse/investigations/sites-aoi/iosco-county/oscoda-area,-83.42141847,44.50811494,Final,{4E7BB15B-E167-48EA-9E02-73C790020B77}
-85.587289761,43.0336900780001,20,State Disposal Superfund,Kent,3954 East Beltline Rd,Grand Rapids,49525,Landfill,Yes,Courtney Fung,FungC@Michigan.gov,517-242-0008 ,https://www.michigan.gov/pfasresponse/investigations/sites-aoi/kent-county/state-disposal-superfund-site,-85.58728976,43.03369008,Final,{EB4397C6-B864-4F59-95B3-61BF6E14A104}
-84.5845251539999,42.7375366360001,21,"RACER Lansing Plants 2,3,6",Ingham,"2800 West Saginaw Street; 2801 West Saginaw Street; Corner of W. MI Ave and N. Verlinden",Lansing,48917,Industrial,No,Christine Matlock,MatlockC2@Michigan.gov,517-290-4612,https://www.michigan.gov/pfasresponse/investigations/sites-aoi/ingham-county/racer-plants-2-3-6,-84.58452515,42.73753664,Final,{FFCBBBCA-98AA-4C81-95A9-B031B1885593}
-86.158,41.84061,22,M-60 Tanker Spill,Cass,2900 Pine Lake Street,Niles,49120,Fire Related,Yes,"Donovan Thomas
","ThomasD38@Michigan.gov 
","269-615-4451

",https://www.michigan.gov/pfasresponse/investigations/sites-aoi/cass-county/m-60-tanker-spill,-86.158,41.84061,Final,{66E16BB2-3DD8-4F27-A452-41348D169405}
-85.509773975,43.330375229,23,Central Sanitary Landfill,Montcalm,21545 W Cannonsville Road,Pierson,49339,Landfill,Yes,Kent Walters,WaltersK7@Michigan.gov ,616-278-4350,https://www.michigan.gov/pfasresponse/investigations/sites-aoi/montcalm-county/central-sanitary-landfill,-85.50977398,43.33037523,Final,{C1B911CF-03ED-4BC7-AA1B-2F9B8877B4F3}
-85.438792456,42.37701665,24,North 34th Street,Kalamazoo,9899 East D Ave,Richland,49083,Industrial,Yes,"Erica Bays
","BaysE@Michigan.gov 
","269-350-0080
",https://www.michigan.gov/pfasresponse/investigations/sites-aoi/kalamazoo-county/north-34th-street,-85.43879246,42.37701665,Final,{85C1D8BC-B3E6-4B99-B987-B9483B67D796}
-85.6798262519999,44.6625904570001,25,"Carl's Retreading
",Grand Traverse,5175 Sawyer Woods Drive,Traverse City,49685,Fire Related,Yes,David Maynard,MaynardD@Michigan.gov,231-429-1656,https://www.michigan.gov/pfasresponse/investigations/sites-aoi/grand-traverse-county/carls-retreading,-85.67982625,44.66259046,Final,{8C3B4F18-A2F4-4E58-B022-716D940B2575}
-85.574060446,42.3434693450001,26,Crown Vantage Property,Kalamazoo,100 Island Avenue (multiple addresses),Parchment,49004,Landfill,Yes,"Erica Bays
","BaysE@Michigan.gov 
","269-350-0080
",https://www.michigan.gov/pfasresponse/investigations/sites-aoi/kalamazoo-county/crown-vantage-property,-85.57406045,42.34346935,Final,{45B0CF22-1C3E-4614-BE4A-5DBD146D2676}
-83.490335336,43.13406472,27,Richfield Landfill,Genesee,11145 East Mt Morris Rd,Davison,48423,Landfill,Yes,Evin Maguire,MaguireE@Michigan.gov ,517-388-3525,https://www.michigan.gov/pfasresponse/investigations/sites-aoi/genesee-county/richfield-landfill,-83.49033534,43.13406472,Final,{9CDCF9DC-779E-489E-A3AE-A03854A60CA1}
-83.684711567,43.0415703620001,28,RACER Buick City,Genesee,902 East Leith St,Flint,48505,Industrial,No,Nicole Sanabria,SanabriaN@Michigan.gov,517-281-7726,https://www.michigan.gov/pfasresponse/investigations/sites-aoi/genesee-county/racer-buick-city,-83.68471157,43.04157036,Final,{459A0D49-C229-4585-8EB7-2D123BCAFDDE}
-85.8529996679999,43.853199267,29,Wash King Laundry,Lake,9247 South M-37,Baldwin,49304,Laundromat/Dry Cleaner,Yes,Mark Riemann,ReimannM@michigan.gov,517-290-9379,https://www.michigan.gov/pfasresponse/investigations/sites-aoi/lake-county/wash-king-laundry,-85.85299967,43.85319927,Final,{F6226EFB-480D-4058-A396-7DB9B6F8FE50}
-85.535987076,42.9347220000001,30,Lacks Industries - Cascade,Kent,1601 Galbraith Ave SE,Grand Rapids,49546,Plating,Yes,Nicole Sanabria,SanabriaN@Michigan.gov,517-281-7726,https://www.michigan.gov/pfasresponse/investigations/sites-aoi/kent-county/lacks-industries-cascade,-85.53598708,42.934722,Final,{3A93F834-CFC2-43C4-9B4B-B301FA354ACC}
-86.327625643,44.2486795240001,31,Manistee Plating,Manistee,259 Sixth Ave,Manistee,49660,Plating,No,Kaitlyn Bertram,BertramK@Michigan.gov ,231-429-1256,https://www.michigan.gov/pfasresponse/investigations/sites-aoi/manistee-county/manistee-plating,-86.32762564,44.24867952,Final,{7706CBF4-AF62-4C1F-878E-CC381FFE8860}
-82.834969057,42.607137084,32,Selfridge ANGB,Macomb,"No address - ANG base
",Harrison Charter Township,48045,Military,Yes,Arthur Ostaszewski,OstaszewskiA@Michigan.gov,517-936-7991,https://www.michigan.gov/pfasresponse/investigations/sites-aoi/macomb-county/selfridge-air-national-guard-base-angb,-82.83496906,42.60713708,Final,{4762E904-9DDA-449C-BB60-2E32AC20434E}
-84.6550220779999,43.291652067,33,Ithaca Sanitary Landfill,Gratiot,West Washington Road,Ithaca,48847,Landfill,Yes,Emily Peabody,PeabodyE@Michigan.gov,517-388-5719,https://www.michigan.gov/pfasresponse/investigations/sites-aoi/gratiot-county/ithaca-sanitary-landfill,-84.65502208,43.29165207,Final,{9DB5C63B-753F-4B21-A743-9F8F77D5344D}
-84.406515,42.253322,34,Michner Plating,Jackson,506 North Mechanic Street,Jackson,48912,Plating,No,Martha Thompson,ThompsonM31@Michigan.gov ,517-285-3461,https://www.michigan.gov/pfasresponse/investigations/sites-aoi/jackson-county/michner-plating,-84.406515,42.253322,Final,{8995B3B4-1DDE-4E3E-B937-4437176CA660}
-83.4253399999999,42.37688,35,RACER Eckles Road,Wayne,"12950 Eckles Road
",Livonia,48150,Industrial,No,Jacob Runge,RungeJ@Michigan.gov ,517-242-8496,https://www.michigan.gov/pfasresponse/investigations/sites-aoi/wayne-county/racer-12950-eckles-rd,-83.42534,42.37688,Final,{65F61527-29FE-4BD6-B7D5-29365C2D017A}
-83.76265803,42.9706896500001,36,Flint Bishop International Airport Landfill,Genesee,G-3425 West Bristol Road,Flint,48507,Landfill,Yes,Paul Bucholtz,BucholtzP@Michigan.gov ,517-243-7574,https://www.michigan.gov/pfasresponse/investigations/sites-aoi/genesee-county/city-of-flint-landfill-at-bishop-international-airport,-83.76265803,42.97068965,Final,{61BB8D5F-27E2-4F29-847F-062A87F6867F}
-85.524636,42.88618,37,Gerald R. Ford International Airport,Kent,"5500 44th Street SW
",Grand Rapids,49512,Airport,Yes,Brent Ritchie,Ritchieb1@michigan.gov,616-581-1782,https://www.michigan.gov/pfasresponse/investigations/sites-aoi/kent-county/gerald-r-ford-international-airport,-85.524636,42.88618,Final,{290AB870-A6DE-46EF-9D78-00EE8FDB9BCB}
-85.191771,42.9309781000001,38,Lacks Industries - Saranac,Ionia,6138 Riverside Drive,Saranac,48881,Plating,Yes,Nicole Sanabria,SanabriaN@Michigan.gov,517-281-7726,https://www.michigan.gov/pfasresponse/investigations/sites-aoi/ionia-county/lacks-industries-saranac,-85.191771,42.9309781,Final,{531E01B2-6B84-4C6A-83BA-5D205CB50C6A}
-83.933129,42.6028220000001,39,Diamond Chrome Plating,Livingston,604 S. Michigan Avenue,Howell,48843,Plating,Yes,Emily Peabody,PeabodyE@Michigan.gov,517-388-5719,https://www.michigan.gov/pfasresponse/investigations/sites-aoi/livingston-county/diamond-chrome-plating-dcp,-83.933129,42.602822,Final,{FE7C53E7-04C3-47FC-9E3A-F6CCBAC6AB60}
-84.6353999999999,43.3787800000001,40,MRP (former Total Petroleum Refinery),Gratiot,1610 East Superior Street,Alma,48801,Refinery,Yes,Marc Messina,MessinaM@Michigan.gov,517-219-2394,https://www.michigan.gov/pfasresponse/investigations/sites-aoi/gratiot-county/mrp-properties,-84.6354,43.37878,Final,{0B2A154F-E4E2-4BDE-B8C8-4D6200AA82B9}
-85.303125,42.6488790000001,41,Viking Corporation,Barry,210 North Industrial Park Drive,Hastings,49058,Fire Related,No,Lynn Gosson,gossonl@michigan.gov,989-225-0161,https://www.michigan.gov/pfasresponse/investigations/sites-aoi/barry-county/viking-corporation,-85.303125,42.648879,Final,{1847FB7C-493B-40AF-BD26-17CD37541B40}
-83.7838599999999,42.16024,42,Washtenaw Industrial Facility LLC (former Universal Die Cast),Washtenaw,232 and 290 Monroe Street,Saline,48176,Plating,Yes,Sam Cairns,cairnss2@michigan.gov,517-898-4058,https://www.michigan.gov/pfasresponse/investigations/sites-aoi/washtenaw-county/washtenaw-industrial-facility,-83.78386,42.16024,Final,{ED2AB400-970C-4B63-94F4-B371A3C02FB4}
-82.469256,43.0423720000001,43,Fort Gratiot Landfill,St. Clair,3290 Keewahdin Road,Fort Gratiot Township,48059,Landfill,Yes,Allyson Hartz,HartzA1@Michigan.gov,586-256-0347,https://www.michigan.gov/pfasresponse/investigations/sites-aoi/st-clair-county/fort-gratiot-landfill,-82.469256,43.042372,Final,{9C4EDAFA-7B82-44BD-80BA-BDD277FEF1B0}
-83.11834,42.45689,44,MacDermind Inc.,Oakland,1221 Farrow Street,Ferndale,48220,Industrial,No,Nathan Erber,ErberN@michigan.gov ,517-256-6063 ,https://www.michigan.gov/pfasresponse/investigations/sites-aoi/oakland-county/macdermid-inc,-83.11834,42.45689,Final,{89C79D76-6385-4878-938C-AF776C1009A3}
-86.20833,43.2154800000001,45,"MAHLE Engine Components, USA, Inc. - Former Harvey Street Muskegon Plant",Muskegon,2051 South Harvey Street,Muskegon,49444,Industrial,N/A,Peter Van Heest,VanHeestP@Michigan.gov ,616-439-8019,https://www.michigan.gov/pfasresponse/investigations/sites-aoi/muskegon-county/mahle-engine-components,-86.20833,43.21548,Final,{547776CF-528D-433D-BB65-C1F48B64E819}
-83.102805801,42.302706991,46,Gordie Howe International Bridge,Wayne,Livernois Ave and W. Jefferson Ave,Detroit,48209,Industrial,No,Erik Gurshaw,HoinS@Michigan.gov ,586-487-0756,https://www.michigan.gov/pfasresponse/investigations/sites-aoi/wayne-county/gordie-howe-international-bridge,-83.102806,42.302707,Final,{43648D48-8CE5-4031-817A-3521A88C8AB6}
-84.662734375,44.6856672960001,47,Camp Grayling – MATES at Range 30,Crawford,2450 W. North Down River Rd,Grayling,49738,Military,Yes,Christiaan Bon,BonC@Michigan.gov,989-370-9624,https://www.michigan.gov/pfasresponse/investigations/sites-aoi/crawford-county/camp-grayling-mates,-84.662739,44.685681,Final,{A7D063FA-6247-484B-AD75-AA4B0ADB295B}
-86.0800070189999,42.761355006,48,636 40th Street East ,Allegan,636 East 40th Street,Holland,49423,Industrial,Yes,Ray Spaulding,SpauldingR1@Michigan.gov,517-290-2401,https://www.michigan.gov/pfasresponse/investigations/sites-aoi/allegan-county/636-40th-street-east,-86.080007,42.761355,Final,{2235AC38-BC98-42B0-9C29-6A2D50714F5B}
-83.764407572,42.175459109,49,Ford Motor Company – Saline Plant,Washtenaw,7700 Michigan Avenue,Saline,48176,Industrial,No,Nicole Sanabria,SanabriaN@Michigan.gov,517-281-7726,https://www.michigan.gov/pfasresponse/investigations/sites-aoi/washtenaw-county/ford-saline-plant,-83.76441,42.17546,Final,{93A20641-1FFB-43BF-9642-FFF9A817A65B}
-85.729070227,42.9091958490001,50,Electro Chemical Finishing - Remico,Kent,2610 Remico Street SW,Wyoming,49519,Plating,N/A,Brent Ritchie,ritchieb1@michigan.gov,616-581-1782,https://www.michigan.gov/pfasresponse/investigations/sites-aoi/kent-county/electro-chemical-finishing-remico,-85.72907,42.909196,Final,{75450026-9542-4715-AD46-1F627C27BBDD}
-86.2229999909999,43.2049999930001,51,Peerless Plating,Muskegon,2554 Getty Avenue,Muskegon,49444,Plating,No,Nicolas Dawson,DawsonN1@Michigan.gov ,517-897-0912,https://www.michigan.gov/pfasresponse/investigations/sites-aoi/muskegon-county/peerless-plating,-86.223,43.205,Final,{3C480C77-DDEC-4400-B7FA-5FFCD43CF392}
-83.3802833239999,44.5054316850001,52,Oscoda Township Dump,Iosco,Kings Corner Road,Oscoda ,48750,Landfill,Yes,Megan Berry,BerryM5@Michigan.gov,989-295-3877,https://www.michigan.gov/pfasresponse/investigations/sites-aoi/iosco-county/oscoda-area,-83.38028336,44.50543233,Final,{47B093CC-C341-44AA-9913-B38E924DEE3D}
-85.327143634,43.064660804,53,Ashley Avenue Disposal Area,Kent,Corner of Ashley Ave and 6 Mile Rd,Grattan,48809,Landfill,Yes,Leah Gies,GiesL1@Michigan.gov,616-215-4781,https://www.michigan.gov/pfasresponse/investigations/sites-aoi/kent-county/ashley-avenue-disposal-area,-85.32714363,43.06466081,Final,{6736FCF6-3E2C-4BC6-A831-1B3B370B81AA}
-85.452787818,42.012649072,54,Lear Siegler Inc.,St. Joseph ,236 West Clark Street,Mendon,49072,Industrial,Yes,Ray Spaulding,SpauldingR1@Michigan.gov ,517-290-2401,https://www.michigan.gov/pfasresponse/investigations/sites-aoi/st-joseph-county/lear-siegler-inc,-85.452788,42.012649,Final,{56878B82-2E8E-4607-8A09-A6FB64EF9DA6}
-83.572771001,42.236693996,55,RACER Willow Run,Washtenaw,2930 Ecorse Rd,Ypsilanti,48198,Industrial,No,Ashley Lesser,LesserA@Michigan.gov,517-285-6324,https://www.michigan.gov/pfasresponse/investigations/sites-aoi/washtenaw-county/racer-willow-run,-83.572771,42.236694,Final,{10AC55F1-8F0F-4688-A583-552F55C365D6}
-86.082219999,42.9869050080001,56,120th Avenue Area,Ottawa,Area around Robinson Elementary School,Grand Haven,49417,Fire Related,Yes,Kelly Moss,MossK@michigan.gov,616-215-4588,https://www.michigan.gov/pfasresponse/investigations/sites-aoi/ottawa-county/120th-avenue-area,-86.08222,42.986905,Final,{96263C54-C829-4EB4-90D1-F2E22030A3F0}
-83.760345717,42.5136659250001,57,Thermofil,Livingston,6150 Whitmore Lake Road,Brighton,48116,Industrial,Yes,Emily Peabody,PeabodyE@Michigan.gov,517-388-5719,https://www.michigan.gov/pfasresponse/investigations/sites-aoi/livingston-county/thermofil,-83.760346,42.513666,Final,{D93FD7F6-2019-4DE2-8371-0FB4D95F7138}
-85.5575000059999,43.0627777650001,58,Northeast Gravel,Kent,3769 Cannonsburg Road NE,Belmont,49306,Landfill,Yes,Karen Vorce,VorceK@Michigan.gov,616-439-8008,https://www.michigan.gov/pfasresponse/investigations/sites-aoi/kent-county/northeast-gravel,-85.5575,43.06277778,Final,{79AF20C2-FE4B-4238-BD3A-A034045C5CF1}
-85.688408034,42.9347183400001,59,BASF Corporation – Inmont Division,Kent,836 Chicago Drive SW,Wyoming,49519,Industrial,No,Brent Ritchie,ritchieb1@michigan.gov,616-581-1782,https://www.michigan.gov/pfasresponse/investigations/sites-aoi/kent-county/basf-corporation-inmont-division,-85.688408,42.934718,Final,{C6CADE28-8841-4C8D-9D37-C030B24588B9}
-86.172331846,42.2010022060001,60,Du-Wel Metals,Van Buren,520 Heywood Street,Hartford,49057,Plating,Yes,Ray Spaulding,SpauldingR1@Michigan.gov ,517-290-2401,https://www.michigan.gov/pfasresponse/investigations/sites-aoi/van-buren-county/du-wel-metals,-86.172332,42.201002,Final,{A33907F8-17AB-4036-972B-E800B36AF961}
-86.214037071,43.209729843,61,Former ESCO,Muskegon,1221 E. Barney,Muskegon,49444,Industrial ,No,Matt Pfister,PfisterM@Michigan.gov,616-485-7861,https://www.michigan.gov/pfasresponse/investigations/sites-aoi/muskegon-county/former-esco,-86.21404,43.20973,Final,{DE4B138E-638A-4193-BF7E-786D2E29A19C}
-84.96443899,43.587080975,62,Isabella County Landfill,Isabella,West Tomah Road,Mount Pleasant,48858,Landfill,No,Lori Babcock,BabcockL4@Michigan.gov,989-460-7352 ,https://www.michigan.gov/pfasresponse/investigations/sites-aoi/isabella-county/isabella-county-landfill,-84.964439,43.587081,Final,{89D07096-05FC-47CB-819F-304F38752B58}
-84.731516832,42.772375105,63,"Grand Ledge Army Aviation Support
Facility and Armory Site",Clinton,10600 W. Eaton Highway,Grand Ledge,48837,Military,Yes,Kim Sakowski,SakowskiK@Michigan.gov,517-582-2219,https://www.michigan.gov/pfasresponse/investigations/sites-aoi/clinton-county/grand-ledge-armory,-84.73151667,42.772375,Final,{FFBDD26B-82D1-4531-A36B-9331E7BC7BFF}
-86.016639902,43.2371352870001,64,Muskegon County Landfill Type II,Muskegon,9366 Apple Ave,Ravenna,49451,Landfill,No,Kent Walters,WaltersK7@Michigan.gov ,616-278-4350,https://www.michigan.gov/pfasresponse/investigations/sites-aoi/muskegon-county/muskegon-county-landfill-type-ii,-86.01664,43.237135,Final,{B90024FD-8586-4A3D-BEE4-2D9CFC7232C7}
-85.181879443,43.102951514,65,Pitsch Sanitary Landfill,Ionia,7905 Johnson Road,Belding,48809,Landfill,No,Kent Walters,WaltersK7@Michigan.gov ,616-278-4350,https://www.michigan.gov/pfasresponse/investigations/sites-aoi/ionia-county/pitsch-sanitary-landfill,-85.18187,43.102954,Final,{289CBC41-F61E-454F-953B-4E27F0E42CE1}
-83.352220224,41.9032499090001,66,Ford River Raisin Warehouse,Monroe,3200 East Elm Avenue,Monroe,48162,Industrial,No,Christine Matlock,MatlockC2@Michigan.gov,517-290-4612,https://www.michigan.gov/pfasresponse/investigations/sites-aoi/monroe-county/ford-river-raisin-warehouse,-83.35222,41.90325,Final,{D09C14D8-A408-4763-8253-75960C4C12AA}
-85.647594086,42.9346928620001,67,Cottage Grove and Marshall Area,Kent,"800 Block of Cottage Grove Street, SE and 1500 Block of Marshall Avenue, SE",Grand Rapids,49507,Plating,N/A,Brent Ritchie,ritchieb1@michigan.gov,616-581-1782,https://www.michigan.gov/pfasresponse/investigations/sites-aoi/kent-county/cottage-grove-and-marshall-area,-85.647594,42.934692,Final,{E0F75DC5-2EAE-4C17-82E7-148A59F3AFB2}
-85.600948005,42.907179984,68,Keeler Brass – 32nd Street,Kent,"2929 32nd Street, SE",Kentwood,49512,Plating,N/A,Brent Ritchie,Ritchieb1@michigan.gov,616-581-1782,https://www.michigan.gov/pfasresponse/investigations/sites-aoi/kent-county/former-keeler-brass-32nd-street,-85.600948,42.90718,Final,{014043EE-E3FF-4F65-8DAA-DBC12E7BCDB8}
-84.188079988,42.997889967,69,Partz Corporation,Shiawassee,1232 W. Main Street,Owosso,48867,Plating,N/A,Eric Van Riper,VanriperE@Michigan.gov,517-420-6785,https://www.michigan.gov/pfasresponse/investigations/sites-aoi/shiawassee-county/partz-corporation,-84.18808,42.99789,Final,{739AEDB5-C2E9-4974-AF4C-8793956F119E}
-84.466400059,46.2666000300001,70,Former Kincheloe Air Force Base,Chippewa,,,49788,Military,Yes,Ashley Miller/Bill Harmon,MillerA65@Michigan.gov,906-235-7435,https://www.michigan.gov/pfasresponse/investigations/sites-aoi/chippewa-county/kincheloe-air-force-base,-84.4664,46.2666,Final,{4E25C844-A96E-4518-9371-7B6D936C16F3}
-83.8307290399999,42.325296979,71,Former Chrysler Scio Introl Division Site,Washtenaw,2880 Zeeb Road,Dexter,48130,Industrial,Yes,Joseph Rogers,RogersJ5@Michigan.gov,517-555-5312,https://www.michigan.gov/pfasresponse/investigations/sites-aoi/washtenaw-county/chrysler-scio-introl-division,-83.830729,42.325297,Final,{1F21AAA0-27C7-4DCA-897E-A58F8F32EF86}
-84.780722183,43.614108335,72,Mt. Pleasant City Landfill,Isabella,1301 North Franklin Street,Mount Pleasant,48858,Landfill,No,Larry Engelhart,EngelhartL@Michigan.gov ,989-891-6946,https://www.michigan.gov/pfasresponse/investigations/sites-aoi/isabella-county/mt-pleasant-city-landfill,-84.7807222,43.6141083,Final,{D63E6EEA-84AD-449A-A216-C085B8EFF2F9}
-85.5948719629999,42.184107006,73,Portage Former Landfill and Firefighter Training Facility,Kalamazoo,South Westnedge,Portage,49002,Fire Related,Yes,Erica Bays,BaysE@Michigan.gov,269-350-0080,https://www.michigan.gov/pfasresponse/investigations/sites-aoi/kalamazoo-county/portage-former-landfill-ftf,-85.594872,42.184107,Final,{AC7524FE-DE76-46DF-B449-C546F97FFDE3}
-83.908050138,43.568949983,74,Middleground Landfill,Bay,Middleground Island,Bay City,48706,Landfill,No,Loren Curtis,CurtisL@Michigan.gov ,989-274-0614,https://www.michigan.gov/pfasresponse/investigations/sites-aoi/bay-county/middleground-landfill,-83.90805,43.56895,Final,{AEA6DBB5-452A-4B27-9CD4-DAC650D57E92}
-85.550799964,42.2871399700001,75,Georgia Pacific Corporation,Kalamazoo,2425 King Highway,Kalamazoo,49048,Paper Manufacturing,N/A,Erica Bays,BaysE@Michigan.gov,269-350-0080,https://www.michigan.gov/pfasresponse/investigations/sites-aoi/kalamazoo-county/georgia-pacific-corporation,-85.5508,42.28714,Final,{ED4707EF-EE1D-49F0-9C36-FED8241BBA3E}
-86.239000049,43.1639999600001,76,Muskegon County Airport Area,Muskegon,99 Sinclair Dr,Muskegon,49441,Airport,Yes,Peter Van Heest,VanHeestP@Michigan.gov ,616-439-8019,https://www.michigan.gov/pfasresponse/investigations/sites-aoi/muskegon-county/muskegon-county-airport-area,-86.239,43.164,Final,{237DF57E-8D3F-4242-9CC0-9E9260877A3C}
-85.5511110479999,42.286113841,77,"Nolichucky Industrial Corp.
",Kalamazoo,"2305 King Highway
",Kalamazoo,49048,Paper Manufacturing,N/A,Erica Bays,BaysE@Michigan.gov,269-350-0080,https://www.michigan.gov/pfasresponse/investigations/sites-aoi/kalamazoo-county/nolichucky-industrial-corp,-85.55111111,42.28611389,Final,{ED53F0F1-147C-4EB7-8F05-7DE898DC1ABF}
-86.320933026,43.412570976,78,"White Lake Landfill 
",Muskegon ,3278 Colby Road ,Whitehall,49461,Landfill,No,Kent Walters,WaltersK7@Michigan.gov ,616-278-4350,https://www.michigan.gov/pfasresponse/investigations/sites-aoi/muskegon-county/white-lake-landfill,-86.320933,43.412571,Final,{EC58EE8E-09FC-4B3E-8225-6D5B9E26012D}
-85.661028958,42.9759189930001,79,Hoff Industries,Kent,719 Prospect Ave. NE,Grand Rapids,49503,Plating,No,Jason Poll,PollJ@Michigan.gov,616-446-1263 ,https://www.michigan.gov/pfasresponse/investigations/sites-aoi/kent-county/hoff-industries,-85.661029,42.975919,Final,{FCE5B89B-6FF0-45A4-8EF1-7B690E12604E}
-83.3310220019999,44.4068859770001,80,AuSable Twp Smith Street Area,Iosco,US-23 & Smith St. Vicinity,AuSable Township,48750,Unknown,Yes,Megan Berry,BerryM5@Michigan.gov,989-295-3877,https://www.michigan.gov/pfasresponse/investigations/sites-aoi/iosco-county/oscoda-area,-83.331022,44.406886,Final,{0CFACD08-E46C-42AD-BF30-DEED34A03E1D}
-85.666213532,42.5257140750001,81,Watson Township Dump,Allegan,115th Avenue,Martin,49070,Landfill,Yes,Ray Spaulding,SpauldingR1@Michigan.gov ,517-290-2401,https://www.michigan.gov/pfasresponse/investigations/sites-aoi/allegan-county/watson-township-dump,-85.66621351,42.5257141,Final,{B57B10E9-6F8F-4DFF-8B32-DC503B9323AB}
-84.778853983,43.818682982,82,Clare Water Supply Superfund Site,Clare,Clare Industrial Park,Clare,48617,Plating,Yes,Beth Mead-O’Brien,OBriene1@Michigan.gov,517-242-7829,https://www.michigan.gov/pfasresponse/investigations/sites-aoi/clare-county/clare-water-supply-superfund-site,-84.778854,43.818683,Final,{A1BB798E-B566-45A2-9F61-C110DBA10EF1}
-85.7149379639999,42.28349296,83,West KL Avenue Landfill,Kalamazoo,8606 West KL Avenue,Kalamazoo,49009,Landfill,No,Wally Wagaw,WagawW@Michigan.gov ,517-648-1540,https://www.michigan.gov/pfasresponse/investigations/sites-aoi/kalamazoo-county/west-kl-avenue-landfill,-85.714938,42.283493,Final,{CD545197-C5E1-493D-A776-152D91A22C41}
-86.437551759,42.1038127050001,84,Harbor Plating,Berrien,724 South Fair Street,Benton Harbor,49022,Plating,No,"Pablo Mora
","MoraP@Michigan.gov
","269-910-0136
",https://www.michigan.gov/pfasresponse/investigations/sites-aoi/berrien-county/harbor-plating,-86.43755178,42.10381271,Final,{28625D4C-EB81-421D-80B9-021ED7FF0885}
-83.066944383,42.788133121,85,Walker Landfill,Macomb,5001 31 Mile Road,Washington,48095,Landfill,No,Kevin Wojciechowski,WojciechowskiK@Michigan.gov ,586-623-2948,https://www.michigan.gov/pfasresponse/investigations/sites-aoi/macomb-county/walker-landfill,-83.06694444,42.78813333,Final,{B942BF6D-C4FA-48E5-A3C8-3237C27BFEAA}
-84.813931993,44.0130800380001,86,City of Harrison Landfill Area,Clare,Foote Drive,Harrison,48625,Landfill,Yes,Lori Babcock,BabcockL4@Michigan.gov,989-460-7352 ,https://www.michigan.gov/pfasresponse/investigations/sites-aoi/clare-county/city-of-harrison-landfill-area,-84.813932,44.01308,Final,{B61EDC9D-B0D1-40F0-931D-8A98C95B84DD}
-83.557631097,42.401522604,87,"Advanced Disposal Services Arbor Hills Landfill, Inc.",Washtenaw,Napier Road and Six Mile Road,Northville,48168,Landfill,Yes,Brett Coulter,CoulterB1@Michigan.gov,517-614-7714,https://www.michigan.gov/pfasresponse/investigations/sites-aoi/washtenaw-county/arbor-hills-landfill,-83.5576311,42.4015226,Final,{E1DE5A6D-32FD-409A-B36B-28A0F74381C0}
-85.647500021,41.789399997,88,White Pigeon Paper Company,St. Joseph,15781 River Street,White Pigeon,49099,Paper Manufacturing,Yes,Ray Spaulding,SpauldingR1@Michigan.gov ,517-290-2401,https://www.michigan.gov/pfasresponse/investigations/sites-aoi/st-joseph-county/white-pigeon-paper-company,-85.6475,41.7894,Final,{25CBEF3B-6FD3-46ED-8830-DA4CCDBEBE7F}
-85.7074100029999,42.946808946,89,"Grand Rapids Water Resource Recovery Facility, Former Incinerator Ash Lagoon",Kent,1300 Market Avenue SW,Grand Rapids,49503,Landfill,No,Kent Walters,WaltersK7@Michigan.gov ,616-278-4350,https://www.michigan.gov/pfasresponse/investigations/sites-aoi/kent-county/grand-rapids-water-resource-recovery-facility,-83.976389,42.946809,Final,{53C93F9B-B65A-42D5-911B-2C80B5450540}
-83.976389003,43.398888952,90,Delphi Saginaw Division Plant 2 ,Saginaw,1400 Holmes Street,Saginaw,48602,Industrial,No,Andrew Karg,KargA@Michigan.gov ,989-891-6948,https://www.michigan.gov/pfasresponse/investigations/sites-aoi/saginaw-county/delphi-saginaw-division-plant-2,-83.976389,43.398889,Final,{94047B81-94C3-470A-8098-A13F8A113A7E}
-83.9927349609999,41.8883569970001,91,Adrian Landfill Incorporated,Lenawee,1970 Ogden Highway,Adrian,49221,Landfill,No,Brett Coulter,CoulterB1@Michigan.gov,517-614-7714,https://www.michigan.gov/pfasresponse/investigations/sites-aoi/lenawee-county/adrian-landfill-incorporated,-83.992735,41.888357,Final,{6262E947-2A88-4ECC-9E26-E2F83BCE641C}
-83.395229931,42.2658599060001,92,"US Ecology Romulus
",Wayne,36345 Van Born Road,Romulus,48174,Landfill,No,Nicole Sanabria,SanabriaN@Michigan.gov,517-281-7726,https://www.michigan.gov/pfasresponse/investigations/sites-aoi/wayne-county/us-ecology-romulus,-83.39523,42.26586,Final,{E521C0FC-A451-45DA-96FB-72BDC971319C}
-83.0963570059999,42.4765309640001,93,Electro-Plating Services,Oakland,945 East Ten Mile Road,Madison Heights,48071,Plating,No,Joseph DeGrazia,DeGraziaJ@Michigan.gov ,586-291-0476,https://www.michigan.gov/pfasresponse/investigations/sites-aoi/oakland-county/electro-plating-services,-83.096357,42.476531,Final,{AB97FF05-09F2-470C-9CEB-E79424E64812}
-86.284212967,42.1723539930001,94,Orchard Hill Landfill ,Berrien,3290 Hennesey Road,Watervliet,49098,Landfill,Yes,Nate Whitmyer,whitmyern@michigan.gov,"269-286-1451
",https://www.michigan.gov/pfasresponse/investigations/sites-aoi/berrien-county/orchard-hill-landfill,-86.284213,42.172354,Final,{27BAC25C-E223-45E8-87D3-5ED65E7FA8EE}
-86.312859023,44.2177610000001,95,City of Manistee Former Landfill,Manistee,Adamczak Rd,Manistee,49660,Landfill,Yes,Kaitlyn Bertram,BertramK@Michigan.gov ,231-429-1256,https://www.michigan.gov/pfasresponse/investigations/sites-aoi/manistee-county/city-of-manistee-former-landfill,-86.312859,44.217761,Final,{FA20089C-03F9-4B0F-A849-9F897269076E}
-83.305651054,42.528054211,96,Franklin Village Area,Oakland,Franklin Road between Evelyn Court and Vincennes Avenue/Ravine Dr,Franklin,48025,Unknown,Yes,Kimberly Ethridge,EthridgeK@Michigan.gov ,586-324-0183,https://www.michigan.gov/pfasresponse/investigations/sites-aoi/oakland-county/franklin-village-area,-83.30565106,42.52805421,Final,{78AC107B-E53A-4292-9067-D4362EA3973E}
-82.964699937,42.362919983,97,"Petro-Chem Processing Group of Nortru, LLC (Petro-Chem)",Wayne,421 Lycaste Street,Detroit,48214,Industrial,No,Nathan Erber,ErberN@Michigan.gov ,517-256-6063,https://www.michigan.gov/pfasresponse/investigations/sites-aoi/wayne-county/petro-chem,-82.9647,42.36292,Final,{FC59AB73-AD40-486A-A729-9BD9C175C348}
-86.406107,43.942331988,98,Ludington Wastewater Treatment Plant ,Mason,5160 West Sixth Street,Ludington,49431,Wastewater,Yes,Sydney Ruhala,RuhalaS@Michigan.gov ,517-599-5356,https://www.michigan.gov/pfasresponse/investigations/sites-aoi/mason-county/ludington-wastewater-treatment-plant,-86.406107,43.942332,Final,{B10CDEE7-FB06-4855-B74F-E7D9EE4DA11B}
-85.5205554999999,42.26391389,99,Aero-Motive Company,Kalamazoo,5688 ML Avenue,Kalamazoo,49048,Industrial,Yes,Erica Bays,BaysE@Michigan.gov ,269-350-0080,https://www.michigan.gov/pfasresponse/investigations/sites-aoi/kalamazoo-county/aero-motive-company,-85.5205555,42.26391389,Final,{488B3B10-4CB1-4870-B514-4DAE2C98DC92}
-85.56422,43.2107300000001,100,Cedar Springs Historic Wastewater Treatment Lagoons and Discharge Fields,Kent,755 and 725 West Street,Cedar Springs,49319,Wastewater,Yes,Leah Gies,GiesL1@Michigan.gov ,616-215-4781,https://www.michigan.gov/pfasresponse/investigations/sites-aoi/kent-county/cedar-springs-historic-wwtl-df,-85.56422,43.21073,Final,{48509E16-1C52-4064-8688-E192A6FD2FB0}
-86.2652879999999,46.090159,101,City of Manistique Landfill,Schoolcraft,M-94,Manistique,49854,Landfill,No,Mary Ann St Antoine,StAntoineM@Michigan.gov ,989-370-8035,https://www.michigan.gov/pfasresponse/investigations/sites-aoi/schoolcraft-county/city-of-manistique-landfill,-86.265288,46.090159,Final,{6AF71B21-3867-41DF-BD7B-B8C92004F151}
-83.49307,42.1155800000001,102,City Sand & Landfill Inc,Wayne,46805 Willow Road,Belleville,48111,Landfill,N/A,Aaron Darling,darlinga5@michigan.gov,586-942-1910,https://www.michigan.gov/pfasresponse/investigations/sites-aoi/wayne-county/city-sand-landfill-inc,-83.49307,42.11558,Final,{AD37B107-5452-4C49-8FD0-D3B7929542DA}
-83.28953,42.68951,103,Collier Road Landfill,Oakland,575 Collier Road ,Pontiac,48340,Landfill,Yes,Aaron Darling,darlinga5@michigan.gov,586-942-1910,https://www.michigan.gov/pfasresponse/investigations/sites-aoi/oakland-county/collier-road-landfill,-83.28953,42.68951,Final,{2AADE5E4-6A1E-401D-BCAD-8C2D2A242CF9}
-83.050332,43.7190380000001,104,Cove Landfill and Huron Landfill Property,Huron,4151 McMillan Rd,Bad Axe,48413,Landfill,Yes,Lori Babcock,BabcockL4@Michigan.gov,989-460-7352 ,https://www.michigan.gov/pfasresponse/investigations/sites-aoi/huron-county/cove-landfill-and-huron-landfill-property,-83.050332,43.719038,Final,{D340C743-9290-4049-AE4A-969DE4DEEE2F}
-83.869499,43.6149780000001,105,Dow Chemical ITI Facility,Bay,"Martin Street, East of H. S. Truman Parkway",Bay City,48706,Industrial,No,Melissa Yuvan,YuvanM@Michigan.gov ,989-891-6087,https://www.michigan.gov/pfasresponse/investigations/sites-aoi/bay-county/dow-chemical-iti-facility,-83.869499,43.614978,Final,{C5162709-C285-47EA-8977-A1AE9662CF50}
-84.7504499999999,42.6454900000001,106,Eaton County Landfill,Eaton,East Gresham Highway ,Potterville,48876,Landfill,No,Evin Maguire,MaguireE@Michigan.gov ,517-388-3525,https://www.michigan.gov/pfasresponse/investigations/sites-aoi/eaton-county/eaton-county-landfill,-84.75045,42.64549,Final,{A16B8230-0F3A-42A3-B681-4CF0001E6DE0}
-86.22369,43.2535300000001,107,Former Teledyne Vehicle Systems (TDY),Muskegon,76 Getty Street,Muskegon,49442,Industrial,No,Nathan Erber,ErberN@Michigan.gov ,517-256-6063,https://www.michigan.gov/pfasresponse/investigations/sites-aoi/muskegon-county/former-teledyne-vehicle-systems,-86.22369,43.25353,Final,{D5A82E12-5EF7-4BF1-8074-C14ED9E7D357}
-85.842367,44.7868050000001,108,Glens Sanitary Landfill,Leelanau,518 M-72 West,Maple City,49664,Landfill,No,James Staley,StaleyJ1@Michigan.gov,231-429-1945 ,https://www.michigan.gov/pfasresponse/investigations/sites-aoi/leelanau-county/glens-sanitary-landfill,-85.842367,44.786805,Final,{8EA962C4-9BA2-4A74-8F9B-6F7C601A7FBA}
-83.878214,43.6064010000001,109,GM Powertrain Bay City,Bay,100 Fitzgerald Street ,Bay City,48708,Industrial,No,Jeremy Peppin,pepinj2@michigan.gov,517-219-2288,https://www.michigan.gov/pfasresponse/investigations/sites-aoi/bay-county/gm-powertrain,-83.878214,43.606401,Final,{26D053A4-B59B-4A76-8CB2-33C6F5E79974}
-84.677353,44.638987,110,Grayling Wastewater Treatment Facility Discharge Fields ,Crawford,Fort Rd,Grayling,49738,Wastewater,TBD,Sydney Ruhala,RuhalaS@Michigan.gov ,517-599-5356 ,https://www.michigan.gov/pfasresponse/investigations/sites-aoi/crawford-county/grayling-wastewater-treatment-facility-discharge-fields,-84.677353,44.638987,Final,{BA734A4B-E316-4EBB-B954-637852D65E5D}
-85.29745,42.681226,111,CES Landfill of Hastings,Barry,1899 North M-43 Highway,Hastings,49058,Landfill,No,Kent Walters,WaltersK7@Michigan.gov ,616-278-4350,https://www.michigan.gov/pfasresponse/investigations/sites-aoi/barry-county/ces-landfill-of-hastings,-85.29745,42.681226,Final,{E65478EC-47FC-4703-B11C-B886715332E9}
-83.5924459999999,42.6501220000001,112,Hi-Mill Manufacturing Superfund Site ,Oakland,1704 Highland Road (M-59) ,Highland Charter Twp,48356,Industrial,No,Jason Harnick,HarnickJ1@Michigan.gov ,517-599-7421,https://www.michigan.gov/pfasresponse/investigations/sites-aoi/oakland-county/hi-mill-manufacturing-superfund-site,-83.592446,42.650122,Final,{33DCA74C-085E-43EE-9772-BF9480F82836}
-84.56001524,42.7024687700001,113,Kent Cleaners,Ingham,2911 South Washington Avenue ,Lansing,48910,Laundromat/Dry Cleaner,No,Kim Sakowski,SakowskiK@Michigan.gov,517-582-2219,https://www.michigan.gov/pfasresponse/investigations/sites-aoi/ingham-county/kent-cleaners,-84.56001524,42.70246877,Final,{342191EA-7586-4F01-A60E-3EB0B15F3AF9}
-84.3647099999999,42.1520110000001,114,Liberty Environmentalists Landfill,Jackson,7900 South Meridian Road,Clark Lake,49234,Landfill,No,Brett Coulter,CoulterB1@Michigan.gov,517-614-7714,https://www.michigan.gov/pfasresponse/investigations/sites-aoi/jackson-county/liberty-environmentalists-landfill,-84.36471,42.152011,Final,{B7FC96F9-FE68-436C-BCCB-58C2C172741A}
-83.982,42.626,115,Livingston County Airport,Livingston,3399 County Airport Drive,Howell,48843,Airport,No,Rebecca Taylor,TaylorR@Michigan.gov ,517-284-5160,https://www.michigan.gov/pfasresponse/investigations/sites-aoi/livingston-county/livingston-county-airport,-83.982,42.626,Final,{DC6A429A-5C53-42CC-9589-73E49B4ED276}
-83.9215,42.65182,116,Livingston County Landfill,Livingston,E Barron Rd,Howell,48855,Landfill,Yes,Evin Maguire,MaguireE@Michigan.gov ,517-388-3525,https://www.michigan.gov/pfasresponse/investigations/sites-aoi/livingston-county/livingston-county-landfill,-83.9215,42.65182,Final,{8E4C8D59-20DB-4479-9E14-A0D4017F5A5A}
-83.27503,42.9478360000001,117,Metamora Landfill Superfund Site,Lapeer,1811 Dryden Road,Metamora,48455,Landfill,Yes,Erik Martinson,MartinsonE@Michigan.gov ,517-285-3978,https://www.michigan.gov/pfasresponse/investigations/sites-aoi/lapeer-county/metamora-landfill-superfund-site,-83.27503,42.947836,Final,{3B0AB11D-0804-4624-B126-A887F9F71B76}
-83.656419,42.45773,118,"Michigan Seamless Tube, LLC",Oakland,400 Mcmunn St,South Lyon,48178,Industrial,No,Joe Rogers,RogersJ5@Michigan.gov ,517-599-5312,https://www.michigan.gov/pfasresponse/investigations/sites-aoi/oakland-county/michigan-seamless-tube-llc,-83.656419,42.45773,Final,{2DC05C64-F5DF-416C-A169-39A9B7F0AD8A}
-84.12584,44.94109,119,Montmorency-Oscoda-Alpena Landfill,Montmorency,6751 Landfill Road,Atlanta,49709,Landfill,No,John Ozoga ,OzogaJ@Michigan.gov,231-429-1718,https://www.michigan.gov/pfasresponse/investigations/sites-aoi/montmorency-county/montmorency-oscoda-alpena-landfill,-84.12584,44.94109,Final,{4159A81C-7158-42DD-B565-BA754374AD3A}
-86.02556,43.25861,120,Muskegon County Wastewater Management System Metro Wastewater Treatment Plant ,Muskegon,698 North Maple Island Road,Muskegon,49442,Wastewater,TBD,Sydney Ruhala,RuhalaS@Michigan.gov ,517-599-5356 ,https://www.michigan.gov/pfasresponse/investigations/sites-aoi/muskegon-county/muskegon-county-wwms-metro-wwtp,-86.02556,43.25861,Final,{7EA9BCCF-56FD-4FCC-8C20-D9FE9BB2B270}
-86.333655,43.3885540000001,121,Muskegon Chemical Company,Muskegon,1725 Warner Street ,Whitehall,49461,Industrial,No,Nicolas Dawson,DawsonN1@Michigan.gov ,517-897-0912,https://www.michigan.gov/pfasresponse/investigations/sites-aoi/muskegon-county/muskegon-chemical-company,-86.333655,43.388554,Final,{841DFF01-93D3-4DAF-9549-CB1FDCE4F22D}
-83.24783,42.70851,122,Oakland Heights Development Landfill,Oakland,2350 Brown Road ,Auburn Hills,48326,Landfill,Yes,Jim Bakun,BakunJ@Michigan.gov ,586-753-3834,https://www.michigan.gov/pfasresponse/investigations/sites-aoi/oakland-county/oakland-heights-development-landfill,-83.24783,42.70851,Final,{0B98E2C8-182C-4BCA-AC87-D8A137B5F9DD}
-83.8707679999999,43.2751450000001,123,Peoples Landfill,Saginaw,4143 East Rathbun Road,Birch Run,48415,Landfill,Yes,Lori Babcock,BabcockL4@Michigan.gov,989-460-7352 ,https://www.michigan.gov/pfasresponse/investigations/sites-aoi/saginaw-county/peoples-landfill,-83.870768,43.275145,Final,{10CCA187-B510-4BFF-8B53-41B125EB6EDF}
-83.13177,42.4695300000001,124,Reichhold East Area,Oakland,3101 Bermuda,Ferndale,48220,Industrial,No,Nicole Sanabria,SanabriaN@Michigan.gov,517-281-7726,https://www.michigan.gov/pfasresponse/investigations/sites-aoi/oakland-county/reichhold-east-area,-83.13177,42.46953,Final,{23682F86-6C70-4466-B03D-B23E67F60C37}
-83.97338,43.400721,125,Saginaw Malleable Iron,Saginaw,77 West Center Street ,Saginaw,48602,Industrial,No,"Andrew Karg
",KargA@Michigan.gov ,989-891-6948,https://www.michigan.gov/pfasresponse/investigations/sites-aoi/saginaw-county/saginaw-malleable-iron,-83.97338,43.400721,Final,{8D2BAE63-884F-40B1-8FD3-36427C770F22}
-83.0682584,42.7784224000001,126,South Macomb Disposal Authority Landfill #11 ,Macomb,65921 Mound Road ,Washington,48095,Landfill,Yes,Jim Bakun,BakunJ@Michigan.gov ,586-753-3834,https://www.michigan.gov/pfasresponse/investigations/sites-aoi/macomb-county/south-macomb-disposal-authority-landfill-11-landfill,-83.0682584,42.7784224,Final,{471CF7CF-0E76-49F4-8115-41D0D1728FF6}
-82.909353,42.684108,127,South Macomb Disposal Authority Landfills 9/9A ,Macomb,24 Mile Road,Macomb Township,48042,Landfill,Yes,Samantha Belisle,BelisleS1@Michigan.gov,517-290-0686,https://www.michigan.gov/pfasresponse/investigations/sites-aoi/macomb-county/south-macomb-disposal-authority-landfills-9-9a,-82.909353,42.684108,Final,{15108E45-1678-4CEC-9278-2C227088FFEA}
-85.675934,42.935709,128,Steele Avenue Area,Kent,1500 Block of Steele Avenue SW ,Grand Rapids,49507,Industrial,No,Brent Ritchie,Ritchieb1@michigan.gov,616-581-1782,https://www.michigan.gov/pfasresponse/investigations/sites-aoi/kent-county/steele-avenue-area,-85.675934,42.935709,Final,{4B5ED0AD-7EBD-4F24-B7B4-A266338525BE}
-85.387928,41.804786,129,Sturgis City Landfill,St. Joseph,US-12 and Big Hill Road,Sturgis,49091,Landfill,Yes,"Ray Spaulding
","SpauldingR1@Michigan.gov 
","517-290-2401
",https://www.michigan.gov/pfasresponse/investigations/sites-aoi/st-joseph-county/sturgis-city-landfill,-85.387928,41.804786,Final,{6D954AA5-3D05-47F9-AEAA-8ACDFE0F2823}
-82.729143,43.4369520000001,130,Tri-City Recycling and Disposal Facility - Messman Site,Sanilac,426 North Ruth Road,Carsonville,48419,Landfill,Yes,Lori Babcock,BabcockL4@Michigan.gov,989-460-7352 ,https://www.michigan.gov/pfasresponse/investigations/sites-aoi/sanilac-county/tri-city-recycling-and-disposal-facility-messman-site,-82.729143,43.436952,Final,{41E1B6F2-1FCD-4A37-89E0-DFCD41D415E6}
-83.9800999999999,42.9850300000001,131,Venice Park Recycling Disposal Facility,Shiawassee,9536 East Lennon Road,Lennon,48449,Landfill,No,Evin Maguire,MaguireE@Michigan.gov ,517-388-3525,https://www.michigan.gov/pfasresponse/investigations/sites-aoi/shiawassee-county/venice-park-recycling-and-disposal-facility,-83.9801,42.98503,Final,{D73C58A2-3B3C-4292-898D-A8490DBE34E0}
-83.5212299999999,42.2215100000001,132,Wayne Disposal Site 1 Landfill,Wayne,49350 North I-94 Service Drive,Belleville,48111,Landfill,No,Christine Matlock,MatlockC2@Michigan.gov,517-290-4612,https://www.michigan.gov/pfasresponse/investigations/sites-aoi/wayne-county/wayne-disposal-site-1-landfill,-83.52123,42.22151,Final,{608038A4-3982-4CF2-918F-9C4E5A8ED9C7}
-84.0240828999999,42.3564922,133,Werkner Road Landfill ,Washtenaw,8027 Werkner Road,Chelsea,48118,Landfill,Yes,Brett Coulter,CoulterB1@Michigan.gov,517-614-7714,https://www.michigan.gov/pfasresponse/investigations/sites-aoi/washtenaw-county/werkner-road-landfill,-84.0240829,42.3564922,Final,{37F3BD80-046D-4D98-9D2F-677C83D23097}
-85.6791489999999,41.9231,134,Westside Recycling and Disposal Facility ,St. Joseph,14094 M-60 West,Three Rivers,49093,Landfill,Yes,"Nathan Whitmyer
","Nathan Whitmyer
","269-286-1451
",https://www.michigan.gov/pfasresponse/investigations/sites-aoi/st-joseph-county/westside-recycling-and-disposal-facility,-85.679149,41.9231,Final,{3B99BEF6-1D85-49EF-9256-466E5DEE6221}
-83.725000033,42.573999954,135,Brighton Township Dump,Livingston,Corlett Drive,Brighton Township,48114,Landfill,Yes,Rebecca Taylor,TaylorR@Michigan.gov ,517-284-5160,https://www.michigan.gov/pfasresponse/investigations/sites-aoi/livingston-county/brighton-township-dump,-83.725,42.574,Final,{72DFD25F-CEC0-45DC-86A9-45D6E747F675}
-84.671900008,42.5015000010001,136,Eaton Rapids Municipal Landfill,Eaton,Hogsback Rd,Eaton Rapids,48827,Landfill,Yes,Rebecca Taylor,TaylorR@Michigan.gov ,517-284-5160,https://www.michigan.gov/pfasresponse/investigations/sites-aoi/eaton-county/eaton-rapids-municipal-landfill,-84.6719,42.5015,Final,{A0153C9E-4D79-4FA8-A214-A9B9C85908B9}
-86.328736982,41.8096679720001,137,Southeast Berrien County Landfill Authority,Berrien,1540 Mayflower Road,Niles,49120,Landfill,No,Nathan Whitmyer,Nathan Whitmyer,269-286-1451,https://www.michigan.gov/pfasresponse/investigations/sites-aoi/berrien-county/southeast-berrien-county-landfill-authority,-86.328737,41.809668,Final,{9D46D726-C5A8-4159-B057-F8A6EBC93320}
-85.555816034,42.2862109640001,138,"Allied Paper, Inc./Portage Creek/Kalamazoo River Superfund Site, King Highway Landfill (OU3) ",Kalamazoo,"Intersection of King Highway and Michigan Ave.
",Kalamazoo,49001,Landfill,No,Daniel Peabody,PeabodyD@Michigan.gov,517-285-3924,https://www.michigan.gov/pfasresponse/investigations/sites-aoi/kalamazoo-county/allied-paper-king-highway-landfill-ou3,-85.555816,42.286211,Final,{91F0BE13-45AF-45ED-BBA2-F44465C84E9A}
-85.5444630219999,42.282369972,139,"Allied Paper, Inc./Portage Creek/Kalamazoo River Superfund Site, Willow Boulevard/A-Site Landfill (OU2)",Kalamazoo,Near the intersection of Lake Street and Olmstead Road,Kalamazoo Township,49048,Landfill,No,Daniel Peabody,PeabodyD@Michigan.gov,517-285-3924,https://www.michigan.gov/pfasresponse/investigations/sites-aoi/kalamazoo-county/allied-paper-willow-boulevard-landfill-ou2,-85.544463,42.28237,Final,{955D13B9-5D30-4308-B6D0-5EDB664F326B}
-83.168127065,42.2729479500001,140,Marathon Petroleum Company,Wayne,1300 South Fort Street,Detroit,48217,Refinery,N/A,Eric Larson,LarsonE5@Michigan.gov ,586-255-6196,https://www.michigan.gov/pfasresponse/investigations/sites-aoi/wayne-county/marathon-petroleum-company,-83.168127,42.272948,Final,{D802D72D-F212-4DAC-AC29-B5B80915D263}
-85.578781106,42.2701679630001,141,"Allied Paper, Inc./Portage Creek/Kalamazoo River Superfund Site, Allied Paper Landfill (OU1).",Kalamazoo,268 East Alcott,Kalamazoo,49001,Landfill,No,Daniel Peabody,PeabodyD@Michigan.gov,517-285-3924,https://www.michigan.gov/pfasresponse/investigations/sites-aoi/kalamazoo-county/allied-paper-landfill-ou1,-85.578781,42.270168,Final,{1F371363-29B2-4DA5-B738-616166438259}
-87.675480001,45.2201430010001,142,Great Lakes Pulp Company Landfill,Menominee,7 1/2 Mile Road,Menominee ,49858,Landfill,Yes,Mary Ann St Antoine,StAntoineM@Michigan.gov ,989-370-8035,https://www.michigan.gov/pfasresponse/investigations/sites-aoi/menominee-county/great-lakes-pulp-company-landfill,-87.67548,45.220143,Final,{242CADAD-C955-4A9F-B3D7-941C165E6DBE}
-83.672983027,42.981132981,143,Hemphill Road Industrial Land – RACER,Genesee,Southeast corner of the South Saginaw Street and Hemphill Road,Burton,48529,Industrial,Yes,Brian Kuberski,KuberskiBP@Michigan.gov ,517-243-7574,https://www.michigan.gov/pfasresponse/investigations/sites-aoi/genesee-county/racer-hemphill-road-industrial-land,-83.672983,42.981133,Final,{1CD0950C-ED7E-42D5-A3C3-D77DDD79B535}
-83.67709003,43.0587839730001,144,Lockhart Chemical Company,Genesee,4302 James P Cole Boulevard,Flint,48505,Industrial,No,Brian Kuberski,KuberskiB@Michigan.gov,517-243-7574,https://www.michigan.gov/pfasresponse/investigations/sites-aoi/genesee-county/lockhart-chemical-company,-83.67709,43.058784,Final,{C2AE3FBA-243D-4B8D-B858-66ECA3D7EA3C}
-83.702846052,43.012098978,145,RACER Flint West,Genesee,Northwest corner of Glenwood Avenue and Stevenson Street ,Flint,48503,Industrial,No,Shaun Shields,ShieldS5@Michigan.gov,517-331-8950,https://www.michigan.gov/pfasresponse/investigations/sites-aoi/genesee-county/racer-flint-west,-83.702846,43.012099,Final,{016CB452-EB5C-4D59-B655-03B0215B7DF4}
-83.770999972,42.5169999820001,146,1279 Rickett Road ,Livingston,1279 Rickett Road ,Brighton,48116,Industrial,Yes,Rebecca Taylor,TaylorR@Michigan.gov ,517-284-5160,https://www.michigan.gov/pfasresponse/investigations/sites-aoi/livingston-county/1279-rickett-road,-83.771,42.517,Final,{4AA6FAAC-5BCC-443D-8081-CF70599D28D7}
-83.1601000539999,42.298627982,147,Rouge Manufacturing Complex ,Wayne,3001 Miller Road ,Dearborn,48126,Industrial,No,Joseph Rogers,RogersJ5@Michigan.gov,517-555-5312,https://www.michigan.gov/pfasresponse/investigations/sites-aoi/wayne-county/rouge-manufacturing-complex,-83.1601,42.298628,Final,{2F98B642-4D44-44C4-8AFA-815464B9107D}
-83.095850003,42.6642900040001,148,Southeastern Oakland County Resource Recovery Authority (SOCRRA) Avon Landfill,Oakland,1741 School Road,Rochester Hills,48307,Landfill,Yes,Aaron Darling,darlinga5@michigan.gov,586-942-1910,https://www.michigan.gov/pfasresponse/investigations/sites-aoi/oakland-county/socrra,-83.09585,42.66429,Final,{DB4D3722-C106-4AE7-A028-69BE2B38E6F8}
-85.684850037,42.9456699720001,149,Former Keeler Brass – Godfrey Ave,Kent,955 and 945 Godfrey Avenue SW,Grand Rapids,49503,Plating,No,Peter Van Heest,VanHeestP@Michigan.gov ,616-439-8019,https://www.michigan.gov/pfasresponse/investigations/sites-aoi/kent-county/former-keeler-brass-godfrey-ave,-85.68485,42.94567,Final,{277EE6AF-ACE3-41AB-820A-65D09FE67F2B}
-83.1461000039999,42.224619965,150,BASF – Northworks Wyandotte,Wayne,1609 Biddle Avenue,Wyandotte,48192,Industrial,No,Arthur Ostaszewski,OstaszewskiA@Michigan.gov,517-936-7991,https://www.michigan.gov/pfasresponse/investigations/sites-aoi/wayne-county/basf-northworks-wyandotte,-83.1461,42.22462,Final,{66A1ACC3-9E13-495B-99AE-9070B05AA578}
-84.724621,44.679698,151,Grayling Army Airfield ,Crawford,Grayling Area,Grayling,49738,Military,Yes,Christiaan Bon,BonC@Michigan.gov,989-370-9624,https://www.michigan.gov/pfasresponse/investigations/sites-aoi/crawford-county/grayling-army-airfield,-84.724621,44.679698,Final,{C6092150-4D35-40DA-95FF-77316F1560B3}
-84.7887189799999,45.570021979,152,Pellston Regional Airport,Emmet,1395 US-31,Pellston,49769,Airport,Yes,Christiaan Bon,BonC@Michigan.gov,989-370-9624,https://www.michigan.gov/pfasresponse/investigations/sites-aoi/emmet-county/pellston-regional-airport,-84.788719,45.570022,Final,{425E2E67-67BB-48FC-9B80-75471844333E}
-86.197143845,43.3079586380001,153,Former Northside Landfill,Muskegon,E. McMillan Road,Muskegon,49445,Landfill,Yes,Peter Van Heest,VanHeestP@Michigan.gov ,616-439-8019,https://www.michigan.gov/pfasresponse/investigations/sites-aoi/muskegon-county/former-northside-landfill,-86.19714388,43.30795864,Final,{A4D42869-ADAF-485B-943F-94FE055113BA}
-83.5243,42.2378,154,"Willow Run Airport, Ypsilanti",Wayne and Washtenaw,801 Willow Run Airport,Ypsilanti,48198,Airport,No,Eric Larson,LarsonE5@Michigan.gov,586-255-6196,https://www.michigan.gov/pfasresponse/investigations/sites-aoi/wayne-county/willow-run-airport,-83.5243,42.2378,Final,{FEF18814-A0A1-4C57-AD5B-AEEBCEB64B67}
-85.07697,43.2870500000001,155,Former City of Stanton Landfill,Montcalm,South end Grove Street,Stanton,48888,Landfill,Yes,Peter Van Heest,VanHeestP@Michigan.gov ,616-439-8019,https://www.michigan.gov/pfasresponse/investigations/sites-aoi/montcalm-county/former-city-of-stanton-landfill,-85.07697,43.28705,Final,{D9C940B9-E0FC-442D-875A-BA429659E175}
-85.55206108,42.235126166,156,Kalamazoo/Battle Creek International Airport,Kalamazoo,5235 Portage Road ,Portage,49002,Airport,Yes,Erica Bays,BaysE@Michigan.gov,269-350-0080,https://www.michigan.gov/pfasresponse/investigations/sites-aoi/kalamazoo-county/kalamazoo-battle-creek-international-airport,-85.55206108,42.23512619,Final,{2FBE78E5-D750-4F67-BFBE-D48AAD9230F8}
-87.0886000039999,45.7182999940001,157,Delta County Airport,Delta,3300 Airport Road,Escanaba,49829,Airport,Yes,Elizabeth DeLiefde,DeLiefdeE@Michigan.gov ,906-235-0002,https://www.michigan.gov/pfasresponse/investigations/sites-aoi/delta-county/delta-county-airport,-87.0886,45.7183,Final,{ED212AE8-C5D3-4AF4-B471-D82E1D23C879}
-85.895488982,42.2110949980001,158,Paw Paw Plating,Van Buren ,139 Commercial Street ,Paw Paw,49079,Plating,No,Rachel Golota,golotar@michigan.gov ,269-370-2404,https://www.michigan.gov/pfasresponse/investigations/sites-aoi/van-buren-county/paw-paw-plating,-85.895489,42.211095,Final,{5376DF73-626D-445E-A0DF-738B309194D4}
-86.252333015,45.985934,159,Zellar Residuals Management Area,Schoolcraft ,Frankovich Road,Manistique,49854,Landfill,TBD,Mary Ann St Antoine,StAntoineM@Michigan.gov ,989-370-8035,https://www.michigan.gov/pfasresponse/investigations/sites-aoi/schoolcraft-county/zellar-residuals-management-area,-86.252333,45.985934,Final,{6E14D81A-2473-48C6-A75B-105CFE15C260}
-82.88682497,42.6125469830001,160,Axalta Coating Systems,Macomb,400 North Groesbeck Highway,Mount Clemens,48043,Fire Related,No,Allyson Hartz,HartzA1Michigan.gov,586-753-3820,https://www.michigan.gov/pfasresponse/investigations/sites-aoi/macomb-county/axalta-coating-systems,-82.886825,42.612547,Final,{33A6D116-4080-420F-8635-1BC43818E34C}
-86.116140129,42.7996798890001,161,Warner-Lambert Company LLC,Ottawa,188 Howard Avenue,Holland,49424,Industrial,No,Nicole Sanabria,SanabriaN@Michigan.gov,517-281-7726,https://www.michigan.gov/pfasresponse/investigations/sites-aoi/ottawa-county/warner-lambert-company-llc,-86.11614,42.79968,Final,{2FE82886-1685-49CE-A4EA-72DDB51F9D00}
-90.134941054,46.524917981,162,Gogebic-Iron County Airport,Gogebic,E5560 Airport Road,Ironwood,49938,Airport,Yes,Amber Kauppila,KauppilaA1@Michigan.gov,906-869-2425,https://www.michigan.gov/pfasresponse/investigations/sites-aoi/gogebic-county/gogebic-iron-county-airport,-90.134941,46.524918,Final,{07832FA8-26E2-4EA9-9CD6-524791F4981C}
-85.5824199749999,44.738150019,163,Cherry Capital Airport,Grand Traverse,727 Fly Don’t Drive,Traverse City,49686,Airport,Yes,"Brian Flickinger
","FlickingerB@Michigan.gov
","231-876-4456
",https://www.michigan.gov/pfasresponse/investigations/sites-aoi/grand-traverse-county/cherry-capital-airport,-85.58242,44.73815,Final,{30F865CE-3CC2-46AA-9FC1-612F22E77B60}
-85.581591085,44.7510169880001,164,"United States Coast Guard Air Station, Traverse City",Grand Traverse,1169 Airport Access Road ,Traverse City,49686,Military,Yes,"Brian Flickinger
","FlickingerB@Michigan.gov
","231-876-4456
",https://www.michigan.gov/pfasresponse/investigations/sites-aoi/grand-traverse-county/east-bay-township-area-of-interest,-85.581591,44.751017,Final,{E30CEF39-F684-4693-AA71-54491EEB909E}
-83.547314,43.2006440010001,165,Forest Waste Superfund Site,Genesee,8359 East Farrand Road,Otisville,48463,Landfill,No,Nicolas Dawson,DawsonN1@Michigan.gov ,517-897-0912,https://www.michigan.gov/pfasresponse/investigations/sites-aoi/genesee-county/forest-waste-superfund-site,-83.547314,43.200644,Final,{72E7AF11-1CCE-45B5-9D46-B563374C1280}
-85.786360002,42.9165149770001,166,Fenske Landfill Inc.,Ottawa ,2646 Kenowa Avenue,Tallmadge Charter Township,49544,Landfill,No,Kent Walters,WaltersK7@Michigan.gov ,616-278-4650,https://www.michigan.gov/pfasresponse/investigations/sites-aoi/ottawa-county/fenske-landfill-inc,-85.78636,42.916515,Final,{933B3CDC-F2AC-4BD3-8896-1A6AEA72169B}
-85.896327997,42.211380004,167,Production Rubber Products,Van Buren,153 Commercial Street,Paw Paw,49079,Industrial,No,Rachel Golota,golotar@michigan.gov ,269-370-2404,https://www.michigan.gov/pfasresponse/investigations/sites-aoi/van-buren-county/production-rubber-products,-85.896328,42.21138,Final,{5E8C6658-5613-4689-9B97-13A502DC35E6}
-86.2537659939999,44.275148002,168,Manistee Blacker Airport,Manistee,2323 Airport Road,Manistee,49660,Airport,No,Kaitlyn Bertram,BertramK@Michigan.gov,231-429-1256,https://www.michigan.gov/pfasresponse/investigations/sites-aoi/manistee-county/manistee-blacker-airport,-86.253766,44.275148,Final,{E6C29E97-B6FA-4598-971A-19CDEA14E576}
-83.604300987,42.7969699970001,169,Former Falk Road Landfill,Oakland,16000 Falk Road,Holly,48442,Landfill,Yes,Kimberly Ethridge,EthridgeK@Michigan.gov ,586-324-0183,https://www.michigan.gov/pfasresponse/investigations/sites-aoi/oakland-county/former-falk-road-landfill,-83.604301,42.79697,Final,{937B08D4-B749-48C1-BC22-C661393E9426}
-84.200728988,42.987761006,170,Shiawassee Sanitary Landfill,Shiawassee,2000 Helena Street,Owosso Township ,48867,Landfill,Yes,Eric Van Riper,"VanriperE@Michigan.gov
","517-420-6785
",https://www.michigan.gov/pfasresponse/investigations/sites-aoi/shiawassee-county/shiawassee-sanitary-landfill,-84.200729,42.987761,Final,{A715019D-CE2E-49B1-8587-9B3E98BBC1B4}
-85.233780041,43.079869951,171,Belding Wastewater Treatment Plant,Ionia,1500 Wells Street,Belding,48809,Wastewater,Yes,Sydney Ruhala,RuhalaS@Michigan.gov ,"517-599-5356
",https://www.michigan.gov/pfasresponse/investigations/sites-aoi/ionia-county/belding-wastewater-treatment-plant,-85.23378,43.07987,Final,{5C7BDFD7-4FCC-4CDC-869D-A8FF3D0F2CB4}
-85.535861998,42.439336998,172,Kavco Landfill,Barry,West Day Road,Plainwell,49080,Landfill,TBD,Lynn Gosson,gossonl1@michigan.gov,616-648-6937,https://www.michigan.gov/pfasresponse/investigations/sites-aoi/barry-county/kavco-landfill,-85.535862,42.439337,Final,{CA392EAC-F934-47FD-90F6-B0EDA8E0A1FB}
-83.684080003,43.0330500050001,173,Former EI DuPont Flint,Genesee,1555 James P. Cole Boulevard,Flint Township  ,48503,Industrial,No,Nicole Sanabria,SanabriaN@Michigan.gov,"517-281-7726
",https://www.michigan.gov/pfasresponse/investigations/sites-aoi/genesee-county/former-el-dupont-flint,-83.68408,43.03305,Final,{293C8114-9A95-4AAF-9748-4C4D112CC5A5}
-85.4111520019999,44.892535992,174,Key II Industrial Building ,Antrim,603 Bridge St.,Elk Rapids,49629,Industrial,No,Christiaan Bon,BonC@Michigan.gov,989-370-9624,https://www.michigan.gov/pfasresponse/investigations/sites-aoi/antrim-county/key-ii-industrial-building,-85.411152,44.892536,Final,{BFF41352-ADB4-4654-8C78-A3EDE779E59B}
-86.234312003,43.0702839910001,175,JB Sims Generating Station,Ottawa,1231 North 3rd Street,Grand Haven,49417,Industrial,No,Kent Walters,waltersk7@michigan.gov,616-278-4350,https://www.michigan.gov/pfasresponse/investigations/sites-aoi/ottawa-county/jb-sims-generating-station,-86.234312,43.070284,Final,{C2A4DF5B-1A45-42D7-A49B-E3B4930C051A}
-83.14912,42.4467199950001,176,Former Hayes Lemmerz International Inc.,Oakland,1600 West 8 Mile Road,Ferndale,48220,Industrial,No,Joe Rogers,RogersJ5@Michigan.gov,517-599-5312,https://www.michigan.gov/pfasresponse/investigations/sites-aoi/oakland-county/former-hayes-lemmerz-international-inc,-83.14912,42.44672,Final,{DD25A5AD-1FC3-4A45-BB06-05AB5551576A}
-83.0176254359999,42.338044111,177,Stroh Parking Structure,Wayne,2935 Wright Street and 261 McDougall Street,Detroit,48226,Industrial,No,Eric A. Larson,larsone5@michigan.gov,586 255-6196,https://www.michigan.gov/pfasresponse/investigations/sites-aoi/wayne-county/stroh-parking-structure,-83.017621,42.338049,Final,{51259767-617F-4068-8E67-636F2642F29C}
-83.657718996,43.082465997,178,Bray Road Site ,Genesee,5200 Bray Road,Genesee Township,48505,Landfill,Yes,Evin Maguire,MaguireE@Michigan.gov,517-388-3525,https://www.michigan.gov/pfasresponse/investigations/sites-aoi/genesee-county/bray-road-site,-83.657719,43.082466,Final,{1BC39F3E-21F7-48CE-8A68-B96019450342}
-83.453558331,42.278061107,179,Cyb Tools,Wayne,42056 Michigan Avenue,Canton,48188,Plating,N/A,Eric A. Larson,LarsonE5@Michigan.gov ,586 255-6196,https://www.michigan.gov/pfasresponse/investigations/sites-aoi/wayne-county/cyb-tools,-83.453575,42.2780599,Final,{C50941C1-0789-47E4-A531-9B6BF1026D70}
-86.157210012,43.1897800080001,180,3523 Heights-Ravenna Road,Muskegon,3523 Heights Ravenna Road,Muskegon (Fruitport Township),49444,Laundromat/Dry Cleaner,Yes,Peter Van Heest,vanheestp@michigan.gov,616-439-8019,https://www.michigan.gov/pfasresponse/investigations/sites-aoi/muskegon-county/3523-heights-ravenna-road,-86.15721,43.18978,Final,{12E08ABA-BD2C-48D6-8CD6-9ECF470BBEA0}
-83.867885534,43.1714814440001,181,Pollard Landfill,Genesee,11349 McKinley Road,Montrose Township,48457,Landfill,No,Evin Maguire ,MaguireE@Michigan.gov,517-388-3525,https://www.michigan.gov/pfasresponse/investigations/sites-aoi/genesee-county/pollard-landfill,-83.86788552,43.17148,Final,{4839719B-6CA6-473A-B82A-9E7FB0856EB1}
-88.494100002,47.1686999950001,182,Houghton County Memorial Airport,Houghton,23810 Airpark Blvd,Calumet,49913,Airport,Yes,Ashley Miller,MillerA65@Michigan.gov,906-235-7435,https://www.michigan.gov/pfasresponse/investigations/sites-aoi/houghton-county/houghton-county-memorial-airport,-88.4941,47.1687,Final,{2C50AF63-CA73-462C-8D91-C1F9B6C82C1C}
-83.468299998,42.681699999,183,Pontiac Lake State Recreation Area,Oakland ,7800 Gale Road,Waterford,48327,Fire Related,Yes,Ira Adolphues,AdolphuesI@Michigan.gov,586-295-6682,https://www.michigan.gov/pfasresponse/investigations/sites-aoi/oakland-county/pontiac-lake-state-recreation-area,-83.4683,42.6817,Final,{B017087F-ECB8-4512-9478-F5CFFFC7C227}
-83.420200014,42.6641000010001,184,Oakland County International Airport ,Oakland,6500 Highland Road,Waterford,48327,Airport,Yes,Ira Adolphues,AdolphuesI@Michigan.gov,586-295-6682,https://www.michigan.gov/pfasresponse/investigations/sites-aoi/oakland-county/oakland-county-international-airport,-83.4202,42.6641,Final,{38DC4E2A-FD10-4304-BFE1-F0A46AEF1E8D}
-85.574577006,42.886177989,185,Lacks Industries - Airlane ,Kent,4260 Airlane Drive SE,Kentwood ,49512,Plating,No,Brent Ritchie,Ritchieb1@michigan.gov,616-581-1782,https://www.michigan.gov/pfasresponse/investigations/sites-aoi/kent-county/lacks-industries-airlane,-85.574577,42.886178,Final,{E9183608-CBA0-429C-A6DE-A990B9B8C2D5}
-83.355400007,42.2162000050001,186,Detroit Metropolitan Wayne County Airport,Wayne,8600 Merriman Road,Romulus,48174,Airport,No,Eric Larson,LarsonE5@Michigan.gov,586-255-6196,https://www.michigan.gov/pfasresponse/investigations/sites-aoi/wayne-county/detroit-metropolitan-wayne-county-airport,-83.3554,42.2162,Final,{EC3F0227-9B1A-45A8-9E54-FBFEA73E5078}
-85.942430009,43.4868370020001,187,Kunnen’s Landfill,Newaygo,3897 Ramshorn Drive ,"Fremont	",49412,Landfill,Yes,Kent Walters,WaltersK7@Michigan.gov,616-278-4350,https://www.michigan.gov/pfasresponse/investigations/sites-aoi/newaygo-county/kunnens-landfill,-85.94243,43.486837,Final,{6BC8F995-0E84-4E72-ADE9-31DFFB7AD17C}
-84.590510498,42.776750001,188,Capital Region International Airport ,Clinton,4100 Capital City Blvd,Lansing,48906,Airport,Yes,Kim Sakowski,SakowskiK@Michigan.gov,517-582-2219,https://www.michigan.gov/pfasresponse/investigations/sites-aoi/clinton-county/capital-region-international-airport,-84.5905105,42.77675,Final,{246F7167-894C-480E-A2FC-29893B3AAD2E}
-85.5380229209999,42.1144459380001,189,Former Fox River Paper Company,Kalamazoo,300 West Highway Street,Vicksburg,49097,Paper Manufacturing,TBD,Erica Bays,BaysE@Michigan.gov,269-350-0080,https://www.michigan.gov/pfasresponse/investigations/sites-aoi/kalamazoo-county/former-fox-river-paper-company,-85.53802292,42.11444594,Final,{34842E75-034E-43AC-A442-208AA8DEEA0E}
-86.254202003,41.783755005,190,Buckeye Niles Terminal,Berrien,2303 South Third Street,Niles,49120,Fire Related,Yes,Pablo Mora,morap@michigan.gov,269-910-0136,https://www.michigan.gov/pfasresponse/investigations/sites-aoi/berrien-county/buckeye-niles-terminal,-86.254202,41.783755,Final,{4BEBFB81-4973-45C1-8A26-C282DC101412}
-86.184987001,42.820494002,191,Southwest Ottawa County Landfill Superfund Site,Ottawa,2901 North 160th Avenue,Park Township,49424,Landfill,Yes,Courtney Fung,FungC@Michigan.gov,517-242-0008,https://www.michigan.gov/pfasresponse/investigations/sites-aoi/ottawa-county/southwest-ottawa-county-landfill-superfund-site,-86.184987,42.820494,Final,{3DC3AB5E-9F8D-4D5E-8479-8BD939A7707A}
-82.489350003,42.9561900050001,192,Techni-Comp,St. Clair,4152 Dove Road,Port Huron,48060,Landfill,Yes,Kim Ethridge,EthridgeK@Michigan.gov,586-324-0183,https://www.michigan.gov/pfasresponse/investigations/sites-aoi/st-clair-county/techni-comp,-82.48935,42.95619,Final,{AA7489A5-1B9F-4A85-B02D-98A7ECFFD2D6}
-83.929989984,43.6717599930001,592,Bangor Township Landfill,Bay,2305 Two Mile Road,Bay City,48706,Landfill,No,Lori Babcock,BabcockL4@Michigan.gov,989-460-7352,https://www.michigan.gov/pfasresponse/investigations/sites-aoi/bay-county/bangor-township-landfill,-83.92999,43.67176,Final,{18B4C64C-F14C-46B7-8AEA-1568E8193D4D}
-85.727727998,42.9170190040001,992,Spartan Chemical Superfund Site,Kent,2539 28th Street Southwest,Wyoming,49509,Industrial,No,Erik Martinson,MartinsonE@Michigan.gov,517-285-3978,https://www.michigan.gov/pfasresponse/investigations/sites-aoi/kent-county/spartan-chemical-superfund-site,-85.727728,42.917019,Final,{A7F51663-A43C-4CAB-8057-C0DB9FFA2C1E}
-85.254514979,42.917256067,1392,Saranac Landfill,Ionia,4857 Ivan Road,Saranac,48881,Landfill,Yes,Kent Walters,Waltersk7@michigan.gov,616-278-4350,https://www.michigan.gov/pfasresponse/investigations/sites-aoi/ionia-county/saranac-landfill,-85.2545426,42.917272,Final,{C88E13FB-02AC-4967-BB20-08B77F4E43E5}
-87.126000005,45.7649999990001,1792,Delta County Landfill,Delta,5701 19th Avenue North,Escanaba,49829,Landfill,No,John J. Ozoga,OzogaJ@michigan.gov,231-429-1718,https://www.michigan.gov/pfasresponse/investigations/sites-aoi/delta-county/delta-county-landfill,-87.126,45.765,Final,{943824C7-5DCB-4BF4-BE97-70891E8B0C5C}
-85.971221601,42.7672265240001,1793,Deyoung Landfill,Allegan,SW Corner of 76th Ave and Ottogan,Zeeland,49423,Landfill,Yes,Ray Spaulding ,SpauldingR1@Michigan.gov ,517-290-2401,https://www.michigan.gov/pfasresponse/investigations/sites-aoi/allegan-county/deyoung-landfill,-85.9712216,42.76722652,Final,{062F736D-AC6E-442F-AEE2-7F9463C2DA81}
-86.303337385,43.216942993,2192,Former S.D. Warren (SAPPI),Muskegon,2400 Lakeshore Drive,Muskegon,49441,Paper Manufacturing,No,Peter Van Heest,vanheestp@michigan.gov,616-439-8019,https://www.michigan.gov/pfasresponse/investigations/sites-aoi/muskegon-county/former-sd-warren-sappi,-86.3033374,43.216943,Final,{27220A8D-5FA9-487C-82B6-7F7DB46A2AF6}
-85.736083997,42.9447650050001,2592,Riverside Sand and Gravel Landfill,Kent,2780 Butterworth Drive,Grand Rapids,49534,Landfill,No,Kent Walters,WaltersK7@Michigan.gov,616-278-4350,https://www.michigan.gov/pfasresponse/investigations/sites-aoi/kent-county/riverside-sand-and-gravel-landfill,-85.736084,42.944765,Final,{34E88F09-4033-4445-94CE-C394DD69BD69}
-83.2450299979999,42.718586003,2992,"LymTal International, Inc.",Oakland,4150 S. Lapeer Road,Lake Orion,48359,Fire Related,Yes,Allyson Hartz,HartzA1Michigan.gov,586-753-3820,https://www.michigan.gov/pfasresponse/investigations/sites-aoi/oakland-county/lymtal-international-inc,-83.24503,42.718586,Final,{C88C6600-1D3F-4B38-9068-6B4B9C9F0DED}
-86.595729988,46.3763199970001,3392,Wood Island Landfill,Alger,"Wood Island Waste Management, Inc., E1081 State Highway M-28",Wetmore,49862,Landfill,No,John J. Ozoga III,OzogaJ@Michigan.gov,231-429-1718,https://www.michigan.gov/pfasresponse/investigations/sites-aoi/alger-county/wood-island-landfill,-86.59573,46.37632,Final,{DC73B092-1C98-4402-A272-950CD1B49483}
-84.628891,45.871277997,3393,City of Mackinac Island Landfill ,Mackinac,3883 Dousman Street,Mackinac Island,49757,Landfill,No,Mary Ann St. Antoine,StantoineM@Michigan.gov,989-370-8035,https://www.michigan.gov/pfasresponse/investigations/sites-aoi/mackinac-county/city-of-mackinac-island-landfill,-84.628891,45.871278,Final,{B9C34B6B-6686-4323-984A-A51248181B74}
-86.026661991,43.6603009930001,3394,Eagle Ottawa Newaygo Farms ,Oceana & Newaygo          ,204th Avenue,Walkerville,49459,Tannery,Yes,Kelly Moss,MossK@Michigan.gov ,616-215-4588,https://www.michigan.gov/pfasresponse/investigations/sites-aoi/oceana-county/eagle-ottawa-newaygo-farms,-86.026662,43.660301,Final,{9C5083D4-E1A6-4B7C-B7EC-A3CFE1733E39}
-86.295205,43.4155480040001,3793,Former Whitehall Wastewater Treatment Plant,Muskegon,2000 Holton-Whitehall Road,Whitehall,49461,Wastewater,Yes,Sydney Ruhala,RuhalaS@Michigan.gov,517-599-5356,https://www.michigan.gov/pfasresponse/investigations/sites-aoi/muskegon-county/former-whitehall-wwtp,-86.295205,43.415548,Final,{DBD08394-2D79-4F23-A152-7E3488EF51F7}
-82.4400310029999,42.987801,4193,EB Eddy Paper/ Domtar Paper,Saint Clair,1700 Washington Avenue,Port Huron,48060,Paper Manufacturing,No,Kim Ethridge,EthridgeK@Michigan.gov,586-324-0183,https://www.michigan.gov/pfasresponse/investigations/sites-aoi/st-clair-county/eb-eddy-paper-domtar-paper,-82.440031,42.987801,Final,{B8DF3C3F-4316-4CD9-BF14-025328305672}
-86.2064126609999,43.0644630580001,4593,Challenge Machinery Company,Ottawa,295 N. Beechtree Street,Grand Haven,49417,Industrial,No,Kelly Moss,MossK@michigan.gov,616-215-4588,https://www.michigan.gov/pfasresponse/investigations/sites-aoi/ottawa-county/challenge-machinery-company,-86.20641267,43.06446307,Final,{39BA285F-FEBA-40B2-B63D-B7D7C29FDE37}
-85.5563763119999,43.1296776680001,4993,Wolverine Sole Plant (former),Kent,485 Wolverine Drive NE,Rockford,49341,Industrial,No,Leah Gies,GiesL1@Michigan.gov,616-215-4781,https://www.michigan.gov/pfasresponse/investigations/sites-aoi/kent-county/wolverine-sole-plant,-85.55637632,43.12967767,Final,{15A81F03-FCC4-4233-9EC8-E189C9A8BFDA}
-86.2417999849999,41.840499977,4994,Toefco Engineered Coating Systems Inc,Berrien,1220 North 14th Street,Niles,49120,Industrial,No,Kathleen Ekstrum,EkstrumK@Michigan.gov,269-568-1373,https://www.michigan.gov/pfasresponse/investigations/sites-aoi/berrien-county/toefco-engineered-coating-systems,-86.2418,41.8405,Final,{38A27975-7C18-4666-B362-D037EB604E17}
-85.257964999,42.298529994,5393,Battle Creek Executive Airport  ,Calhoun,15551 S. Airport Road,Battle Creek,49015,Airport,Yes,Gregg Brettmann,BrettmannG@Michigan.gov,269-567-3528,https://www.michigan.gov/pfasresponse/investigations/sites-aoi/calhoun-county/battle-creek-executive-airport,-85.257965,42.29853,Final,{05F9661D-954C-45A9-BBA4-431E779ED748}
-85.2494399989999,42.3202699980001,5394,Kellogg Air National Guard Base Battle Creek ,Calhoun,3545 Mustang Ave.,Battle Creek,49037,Military,Yes,Gregg Brettmann,BrettmannG@Michigan.gov,269-567-3528,https://www.michigan.gov/pfasresponse/investigations/sites-aoi/calhoun-county/kellogg-angb,-85.24944,42.32027,Final,{356E80BD-1A39-4EF0-92BE-D671E9822B9B}
-84.588074003,42.7712914900001,5395,MIARNG Lansing Hangar         ,Clinton,3700 Capital City Blvd ,Lansing ,48906,Military,No,Kim Sakowski,SakowskiK@michigan.gov      ,517-582-2219,https://www.michigan.gov/pfasresponse/investigations/sites-aoi/clinton-county/miarng-lansing-hangar,-84.588074,42.7712915,Final,{0D22402F-A76B-4878-814C-1A32292643CA}
-85.261833345,45.317047217,5793,Charlevoix Municipal Well Field ,Charlevoix ,Lake Shore Drive,Charlevoix ,49720,Laundromat/Dry Cleaner,No,Nic Dawson,DawsonN1@Michigan.gov,517-897-0912,https://www.michigan.gov/pfasresponse/investigations/sites-aoi/charlevoix-county/charlevoix-municipal-well-field,-85.261833,45.3170472,Final,{B4FAAF5B-E8D1-4271-A236-3B590F43C55A}
-84.659999998,42.6749999990001,6193,State Secondary Complex,Eaton,7426 N. Canal,Dimondale,48821,Fire Related,Yes,Kim Sakowski,SakowskiK@Michigan.gov,517-582-2219,https://www.michigan.gov/pfasresponse/investigations/sites-aoi/eaton-county/state-secondary-complex ,-84.66,42.675,Final,{88E68609-70FD-457F-B9A8-921B5F1D8939}
-85.452587213,42.718906792,6593,Middleville Wastewater Treatment Plant,Barry,607 Sheridan Street,Middleville,49333,Wastewater,Yes,Sydney Ruhala,RuhalaS@Michigan.gov,517-599-5356,https://www.michigan.gov/pfasresponse/investigations/sites-aoi/barry-county/middleville-wwtp,-85.4525872,42.7189068,Final,{AA7F90BD-F496-4EF6-A57B-0C4D3010CD9F}
-85.595930002,43.1125139930001,6993,"North Kent Landfill
",Kent,2908 10 Mile Road NE,Plainfield Township,49341,Landfill,Yes,Leah Gies,GiesL1@Michigan.gov,616-215-4781,https://www.michigan.gov/pfasresponse/investigations/sites-aoi/kent-county/north-kent-landfill,-85.59593,43.112514,Final,{C0E80155-7585-471B-9DA6-2BA996F802B2}
-88.118520001,45.8147430010001,7393,Ford Airport-Iron Mountain,Dickinson ,400 Riverhills Road,Kingsford,49802,Airport,Yes,Ashley Miller,millera65@michigan.gov,906-235-7435,https://www.michigan.gov/pfasresponse/investigations/sites-aoi/dickinson-county/ford-airport-iron-mountain,-88.11852,45.814743,Final,{2C301215-9E5C-4EB6-813A-8AC1B483DE83}
-83.444716001,42.8401436010001,7793,Brandon School District Wastewater Treatment Plant,Oakland,1050 Ortonville Road,Ortonville,48462,Wastewater,No,Kevin Wojciechowski,WojciechowskiK@Michigan.gov,586-291-3418,https://www.michigan.gov/pfasresponse/investigations/sites-aoi/oakland-county/brandon-school-district-wwtp,-83.444716,42.8401436,Final,{EB9615A0-6ACE-449A-B21A-DE8A2F308316}
-83.448243997,42.8467070070001,7794,360 South Street Car Wash,Oakland,360 South Street,Ortonville,48462,Wastewater,Yes,Kevin Wojciechowski,WojciechowskiK@Michigan.gov,586-291-3418,https://www.michigan.gov/pfasresponse/investigations/sites-aoi/oakland-county/360-south-street-car-wash,-83.448244,42.846707,Final,{0D2F6D4B-DC99-48AF-8A57-3FFA4BA79B4D}
-83.396050021,42.690953015,7796,"General Motors Customer Care and Aftersales Facility, Waterford",Oakland,5260 Williams Lake Road,Waterford Township,48329,Industrial,Yes,Nicole Sanabria,SanabriaN@Michigan.gov ,517-281-7726,https://www.michigan.gov/pfasresponse/investigations/sites-aoi/oakland-county/general-motors-ccaf,-83.39605,42.690953,Final,{A332724E-4AEC-47D6-A227-814E109FAF9F}
-83.4916079879999,42.534705994,7797,850 Ladd Road,Oakland,850 Ladd Road,Walled Lake,48390,Industrial,Yes,Colleen McLean,McleanC1@Michigan.gov,586-554-6489,https://www.michigan.gov/pfasresponse/investigations/sites-aoi/oakland-county/850-ladd-road,-83.491608,42.534706,Final,{A14F717E-1576-4560-80CE-4F96A5BFD426}
-83.579977005,42.4713869980001,8193,Lyon Township Wastewater Treatment Plant ,Oakland,53656 Ten Mile Road,South Lyon,48178,Wastewater,Yes,Sydney Ruhala,RuhalaS@Michigan.gov,517-599-5356,https://www.michigan.gov/pfasresponse/investigations/sites-aoi/oakland-county/lyon-township-wastewater-treatment-plant,-83.579977,42.471387,Final,{414338DB-7CE6-4E84-9261-397C5DFE3F99}
-84.9494389979999,43.958975997,8593,Kleen Gene’s Laundromat,Clare,402 South Bringold Avenue,Lake George,48633,Laundromat/Dry Cleaner,Yes,Kevin Wojciechowski,WojciechowskiK@Michigan.gov,586-291-3418,https://www.michigan.gov/pfasresponse/investigations/sites-aoi/clare-county/kleen-genes-laundromat,-84.949439,43.958976,Final,{F3766423-0301-4723-A3AD-898BBF44E643}
-85.084346002,43.2813919980001,8993,Stanton Wastewater Treatment Plant,Montcalm,Brown Road,Stanton,48888,Wastewater,No,Kevin Wojciechowski,WojciechowskiK@Michigan.gov,586-291-3418,https://www.michigan.gov/pfasresponse/investigations/sites-aoi/montcalm-county/stanton-wwtp,-85.084346,43.281392,Final,{98F565A0-674F-4E56-8BE2-076355D82E02}
-85.560276463,42.3431414140001,9393,Hydro Extrusion USA,Kalamazoo,5575 North Riverview Drive,Kalamazoo,49004,Industrial,Yes,Erica Bays,BaysE@Michigan.gov,269-350-0080,https://www.michigan.gov/pfasresponse/investigations/sites-aoi/kalamazoo-county/hydro-extrusion-usa,-85.56027646,42.34314142,Final,{9C737380-5DC4-4A76-88D7-247ED364E436}
-85.511294993,42.805126988,9793,Caledonia Wastewater Treatment Plant,Kent,8701 Cherry Valley Road,Caledonia,49316,Wastewater,TBD,Kevin Wojciechowski,WojciechowskiK@Michigan.gov,586-291-3418,https://www.michigan.gov/pfasresponse/investigations/sites-aoi/kent-county/caledonia-wwtp,-85.511295,42.805127,Final,{1AF0B56F-A393-4B30-8509-AE53AA4A3DA0}
-84.770000001,43.604444007,10193,104 North Kinney,Isabella,104 North Kinney,Mt. Pleasant,48858,Laundromat/Dry Cleaner,No,Jeremy Boothroyd,BoothroydJ@Michigan.gov,989-891-6932,https://www.michigan.gov/pfasresponse/investigations/sites-aoi/isabella-county/104-north-kinney-avenue,-84.77,43.604444,Final,{525AE972-76D3-45CB-8DAA-9AB54614BFFB}
-85.850799009,42.5366739990001,10593,Rockwell International Corporation,Allegan,1 Glass Street,Allegan,49010,Industrial,No,Shelby Bahaw,BahawS@Michigan.gov,517-388-4899,https://www.michigan.gov/pfasresponse/investigations/sites-aoi/allegan-county/rockwell-international-corporation,-85.850799,42.536674,Final,{600A916E-05B2-4346-97B4-CA24ACC42B67}
-83.751011109,42.9648861100001,10596,Bishop International Airport Authority,Genesee,3425 W. Bristol Road,Flint,48507,Airport,No,Brian Kuberski,Kuberskib@michigan.gov,517-243-7574,https://www.michigan.gov/pfasresponse/investigations/sites-aoi/genesee-county/bishop-international-airport-authority,-83.751011,42.964886,Final,{51E4B4EE-F878-4B1E-9068-FA6DC95A76E6}
-83.65297001,43.0311329900001,10597,Delphi Plants 400 and 500,Genesee,2926 Davison Road,Flint,48506,Industrial,No,Nicole Sanabria,SanabriaN@Michigan.gov ,517-281-7726,https://www.michigan.gov/pfasresponse/investigations/sites-aoi/genesee-county/delphi-plants-400-500,-83.65297,43.031133,Final,{F2BDE0EE-6FC1-412F-8551-8FB7C85772A5}
-83.9139999929999,42.593999984,10993,Lucy Road Landfill,Livingston,Lucy Road,Howell ,48843,Landfill,Yes,Rebecca Taylor,taylorr@michigan.gov,517-294-5160,https://www.michigan.gov/pfasresponse/investigations/sites-aoi/livingston-county/lucy-road-landfill,-83.914,42.594,Final,{48403ED6-B6F9-4836-9A38-DE34D0944CFB}
-86.2579290099999,46.0028170050001,11393,Haywire Landfill,Schoolcraft,Highway M-94,"Manistique, Hiawatha Township",49854,Landfill,No,Mary Ann St Antoine,StAntoineM@Michigan.gov,989-370-8035,https://www.michigan.gov/pfasresponse/investigations/sites-aoi/schoolcraft-county/haywire-landfill,-86.257929,46.002817,Final,{4C7355C5-81CA-4760-B1E1-D1141E8CC6EE}
-84.537057997,42.7689219960001,11793,"Daggett Sand & Gravel, Inc. Landfill",Ingham,930 East Sheridan Road,Lansing,48906,Landfill,No,Evin Maguire,MaguireE@Michigan.gov ,517-388-3525,https://www.michigan.gov/pfasresponse/investigations/sites-aoi/ingham-county/daggett-sand-gravel-landfill,-84.537058,42.768922,Final,{364DD340-466B-4AE2-8685-C251408BFA55}
-88.0648399999999,45.801011997,12193,Grede LLC Iron Mountain (Grede Landfill),Dickinson,801 South Carpenter Avenue,Kingsford,49802,Landfill,Yes,Mary Ann St Antoine,StAntoineM@Michigan.gov ,989-370-8035,https://www.michigan.gov/pfasresponse/investigations/sites-aoi/dickinson-county/grede-landfill,-88.06484,45.801012,Final,{76D95884-4942-4A4E-80A5-544133923FDC}
-83.2838300019999,42.6609354060001,12593,GM LLC Pontiac North Campus,Oakland,1 Pontiac Plaza, Pontiac               ,48340,Industrial,No,Nicole Sanabria,SanabriaN@michigan.gov ,517-281-7726,https://www.michigan.gov/pfasresponse/investigations/sites-aoi/oakland-county/gm-lcc-pontiac-north-campus,-83.28383,42.66093,Final,{B24AFC81-70C7-4A04-A084-8BEFFA7F1DB9}
-86.274455001,42.3836589950001,13393,Former Four Star Property,Van Buren,1391 Kalamazoo Street (formerly 1415 Kalamazoo Street),South Haven,49090,Plating,Yes,Rachel Golota,GolotaR@Michigan.gov,269-370-2404,https://www.michigan.gov/pfasresponse/investigations/sites-aoi/van-buren-county/four-star-property,-86.274455,42.383659,Final,{70A03BBF-A11A-4DF8-90FC-7A1F49A5AAF9}
-86.256773,43.2845800000001,13793,Former BASF Muskegon,Muskegon,1740 Whitehall Rd,North Muskegon,49445,Industrial,TBD,Joe Rogers,RogersJ5@Michigan.gov ,517-599-5312,https://www.michigan.gov/pfasresponse/investigations/sites-aoi/muskegon-county/former-basf-muskegon,-86.256773,43.28458,Final,{323B9335-9D50-4767-A8F0-B0D89E950515}
-83.8248899979999,42.4582699810001,13794,Hamburg Township WWTP,Livingston,6400 East M-36,Hamburg,48139,Wastewater,Yes,Kevin Wojciechowski,wojciechowskik@michigan.gov,586-623-2948,https://www.michigan.gov/pfasresponse/investigations/sites-aoi/livingston-county/hamburg-township-wwtp,-83.82489,42.45827,Final,{FF167414-CC15-46AC-82DE-C5D3EB84AFA3}
-83.963417003,42.623255993,13795,2440 West Highland Road – Upland Area of the Shiawassee River Superfund Site,Livingston,2440 W Highland Road,Howell,48843,Industrial,Yes,Mary B. Schafer,Schaferm2@Michigan.gov,517-582-1663,https://www.michigan.gov/pfasresponse/investigations/sites-aoi/livingston-county/2440-west-highland-road,-83.963417,42.623256,Final,{222CA67B-594E-4D27-BCAC-4D67EAEE0F5D}
-86.272198021,42.3839700010001,14193,1421 Kalamazoo Street ,Van Buren,1421 Kalamazoo Street ,South Haven,49090,Industrial,Yes,Rachel Golota,GolotaR@Michigan.gov,269-370-2404,https://www.michigan.gov/pfasresponse/investigations/sites-aoi/van-buren-county/1421-kalamazoo-street,-86.272198,42.38397,Final,{925FD323-5C65-427C-85CB-3F966A918E92}
-84.864389999,43.875799994,14593,Surrey Township Landfill,Clare,7590 Old State Road,Farwell,48622,Landfill,Yes,Scott Malusi,malusis@michigan.gov,989-891-6983,https://www.michigan.gov/pfasresponse/investigations/sites-aoi/clare-county/surrey-township-landfill,-84.86439,43.87583,Final,{9E5C5ACA-9543-42C3-8C42-73902B065F91}
-85.838277005,43.3232070020001,14993,Riveridge Sewage Lagoon,Newaygo,12624 S Ferris Ave,Grant,49327,Wastewater,No,Kent Walters,WaltersK7@Michigan.gov,616-278-4350,https://www.michigan.gov/pfasresponse/investigations/sites-aoi/newaygo-county/riveridge-sewage-lagoon,-85.838277,43.323207,Final,{46079EDA-A8CB-4172-923C-203A039646AD}
-85.737629001,43.1420770030001,15393,Sparta Foundry Waste Facility ,Kent,9737 Laubach Ave,Sparta,49345,Landfill,No,Kent Walters,WaltersK7@Michigan.gov,616-278-4350,https://www.michigan.gov/pfasresponse/investigations/sites-aoi/kent-county/sparta-foundry-waste-facility,-85.737629,43.142077,Final,{957EDC46-FB06-4C12-B989-2B12746C17B4}
-83.851653001,42.52808,15793,Former Genoa Township Oak Pointe WWTP   ,Livingston,5341 Brighton Road,Brighton,48116,Wastewater,TBD,Kevin Wojciechowski ,wojciechowskik@michigan.gov,586-623-2948,https://www.michigan.gov/pfasresponse/investigations/sites-aoi/livingston-county/former-genoa-township-oak-pointe-wwtp,-83.851653,42.52808,Final,{8AAE06C9-589A-4BA2-BA38-BE6EC8F1A3D0}
-83.0420919919999,42.4987540010001,16193,U.S. Army Garrison - Detroit Arsenal,Macomb,6501 East 11 Mile Road,Warren,48397,Military,No,Beth Place,placeb1@michigan.gov,517-899-7524,https://www.michigan.gov/pfasresponse/investigations/sites-aoi/macomb-county/us-army-garrison-detroit-arsenal,-83.042092,42.498754,Final,{C98B8E2F-5239-4670-BB81-E4C249F5A533}
-85.6542039999999,42.6773900800001,16593,Wayland Recycling Inc.,Allegan,763 W. Elm Street,Wayland,49348,Industrial,Yes,Kathleen Ekstrum,EkstrumK@michigan.gov,269-568-1373,https://www.michigan.gov/pfasresponse/investigations/sites-aoi/allegan-county/wayland-recycling,-85.65420423,42.67739008,Final,{267C6C9B-3F17-41EA-BAD5-1731DF595698}
-84.73904444,42.7772000000001,16594,Grand Ledge National Guard Annex Property,Clinton,16583 Wright Road,Grand Ledge,48837,Military,Yes,Kim Sakowski,sakowskik@michigan.gov,517-582-2219,https://www.michigan.gov/pfasresponse/investigations/sites-aoi/clinton-county/grand-ledge-national-guard-annex-property,-84.73904444,42.7772,Final,{31778155-1C7F-47AF-B4E2-B49877CC23B4}
-85.046333445,42.9784217700001,16994,Ionia City Landfill,Ionia,Cleveland St.,Ionia,48846,Landfill,No,Jason Harnick,Harnickj1@michigan.gov,517-599-7421,https://www.michigan.gov/pfasresponse/investigations/sites-aoi/ionia-county/ionia-city-landfill,-85.04633345,42.97842177,Final,{B19DC0A8-17DE-424B-93A1-0BED3AE50F85}
-83.19901,42.106639,16995,DSC McLouth Steel-Gibraltar Plant,Wayne,28000 West Jefferson,Gibraltar,48173,Landfill,Yes,Samantha Belisle,belisles1@michigan.gov,517-290-0686,https://www.michigan.gov/pfasresponse/investigations/sites-aoi/wayne-county/mclouth-steel-gibraltar,-83.19901,42.106639,Final,{345CB8A3-D6A9-45D4-82D4-6F9FFAE0197F}
-85.693278,42.464298,17393,Former Menasha Paper Mill,Allegan ,320 North Farmer,Otsego,49078,Paper Manufacturing,Yes,Ray Spaulding,spauldingr1@michigan.gov,517-290-2401,https://www.michigan.gov/pfasresponse/investigations/sites-aoi/allegan-county/former-menasha-paper-mill,-85.693278,42.464298,Final,{48CC4530-4A73-4DC3-A665-EB3D9F7DCA1E}
-85.683862,42.46874,17394,Menasha Landfill,Allegan ,255 East River Street,Otsego,49078,Landfill,Yes,Ray Spaulding,spauldingr1@michigan.gov,517-290-2401,https://www.michigan.gov/pfasresponse/investigations/sites-aoi/allegan-county/menasha-landfill,-85.683862,42.46874,Final,{6C2490BF-485B-4191-A515-0BA9E8D3708D}
-84.38258536,42.23033975,17793,Michner Plating – Angling Road,Jackson,1725 Angling Rd.,Jackson,49203,Plating,Yes,Martha Thompson,ThompsonM31@michigan.gov,517-285-3461,https://www.michigan.gov/pfasresponse/investigations/sites-aoi/jackson-county/michner-plating-angling-road,-84.38258536,42.23033975,Final,{C3D7D954-51C2-4286-B02B-23F9E003B4F1}
-85.53764,43.1296087600001,18193,5312 11 Mile Road NE,Kent,5312 11 Mile Road NE,Rockford,49341,Tannery,Yes,Leah Gies,GiesL1@Michigan.gov,616-215-4781,https://www.michigan.gov/pfasresponse/investigations/sites-aoi/kent-county/5312-11-mile-road-ne,-85.53764,43.12960876,Final,{3260842B-A3C4-42E1-8B82-9B097F273905}
-86.11878348,43.2107088600001,18593,Bofors Nobel,Muskegon,5025 Evanston Avenue,Egelston Township,49443,Industrial,No,Mark Reimann,ReimannM@michigan.gov,517-290-9379,https://www.michigan.gov/pfasresponse/investigations/sites-aoi/muskegon-county/bofors-nobel,-86.11878348,43.21070886,Final,{2B1F99B5-E901-49F5-8760-60268218D64B}
-88.497,47.2470000000001,18993,North Houghton County Water and Sewer Authority Wastewater Treatment Plant,Houghton,23749 Highway M-203,Calumet,49913,Wastewater,No,Sydney Ruhala,RuhalaS@michigan.gov,517-599-5356,https://www.michigan.gov/pfasresponse/investigations/sites-aoi/houghton-county/north-houghton-county-wsawtp,-88.497,47.247,Final,{9CC88D03-1300-411D-A438-3FEB3F3423AF}
-84.616159,44.4933510000001,19393,Roscommon Area Public Schools WWTP,Roscommon,175 West Sunset Drive,Roscommon,48653,Wastewater,Yes,Kevin Wojciechowski,wojciechowskik@michigan.gov,586-623-2948,https://www.michigan.gov/pfasresponse/investigations/sites-aoi/roscommon-county/roscommon-area-public-schools-wwtp,-84.616159,44.493351,Final,{36286643-1C8D-4693-B886-B9AE05E30B16}
-85.2017069999999,44.7266940000001,19394,Kalkaska WWTP,Kalkaska,1005 Island Lake Road NW,Kalkaska,49646,Wastewater,Yes,Kevin Wojciechowski,wojciechowskik@michigan.gov,586-753-3891,https://www.michigan.gov/pfasresponse/investigations/sites-aoi/kalkaska-county/kalkaska-wwtp,-85.201707,44.726694,Final,{D565614D-140F-420B-A280-9566770035DC}
-83.974853831,42.3977052380001,19793,Multi Lake Water and Sewer Authority Wastewater Treatment Plant,Washtenaw,12088 North Territorial Road,Dexter,48130,Wastewater,Yes,Sydney Ruhala,RuhalaS@michigan.gov,517-599-5356,https://www.michigan.gov/pfasresponse/investigations/sites-aoi/washtenaw-county/multi-lake-wsawtp,-83.97485383,42.39770524,Final,{5C178E81-EBE2-45EB-BD80-3BB131434BDE}
-83.4120444439999,44.6829388890001,20193,220 and 222 South 2nd Street,Alcona,220 and 222 South 2nd Street,Lincoln,48742,Fire Station,Yes,Lisa Kruse,KruseL@Michigan.gov,989-370-1424,https://www.michigan.gov/pfasresponse/investigations/sites-aoi/alcona-county/220-222-south-2nd-street,-83.41204444,44.68293889,Final,{99E1A42F-A0CD-41E1-AA3E-47A9EFBB754F}
-83.9135106269999,42.593146232,20993,Regal Recycling (former),Livingston,645 Lucy Road,Howell,48843,Industrial,TBD,Rebecca Taylor,TaylorR@Michigan.gov,517-284-5160,https://www.michigan.gov/pfasresponse/investigations/sites-aoi/livingston-county/regal-recycling,-83.91351063,42.59314623,Final,{1B0958B9-3907-46FA-AF76-66064256821F}
-86.3025593899999,41.98833231,21393,Michigan Tube Division,Berrien,6400 Love Road,Eau Claire,49111,Plating,Yes,Kate Ekstrum,EkstrumK@Michigan.gov,269-568-1373,https://www.michigan.gov/pfasresponse/investigations/sites-aoi/berrien-county/michigan-tube-division,-86.30255939,41.98833231,Final,{5EA46888-19D1-4509-BDF0-6016F0C818BA}
-86.231903,43.2023848600001,21394,Quality Plating,Muskegon,2712 McIlwraith,Muskegon Heights,49444,Plating,No,Rikki Oden,OdenR@michigan.gov,517-290-9223,https://www.michigan.gov/pfasresponse/investigations/sites-aoi/muskegon-county/quality-plating,-86.231903,43.20238486,Final,{C1690BC6-C5DB-4E13-AD21-4EEE35D66A42}
-85.5400433,42.6367779400001,21794,Misak Landfill,Barry,1075 South Patterson Road,Yankee Springs,49348,Landfill,Yes,Lynn Gosson,gossonl1@michigan.gov,616-648-6937,https://www.michigan.gov/pfasresponse/investigations/sites-aoi/barry-county/misak-landfill,-85.5400433,42.63677794,Final,{756F19B7-DB25-4F53-9138-B82C1DD5D2C7}
-88.038942,45.804655,21795,Central Landfill Authority,Dickinson County,Hydraulic Falls Road,Iron Mountain,49801,Landfill,Yes,Mary Ann St. Antoine,StantoineM@Michigan.gov,989-370-8035,https://www.michigan.gov/pfasresponse/investigations/sites-aoi/dickinson-county/central-landfill-authority,-88.038942,45.804655,Final,{898A53C5-408E-465C-B553-A9AD0830A2A0}
-83.890953,43.572011,22194,"Bay City Fire Department, Station #2",Bay,1000 Fremont Avenue,Bay City,48708,Fire Station,No,Melissa Yuvan,yuvanm@michigan.gov,989-891-6087,https://www.michigan.gov/pfasresponse/investigations/sites-aoi/bay-county/bay-city-fire-department-station-2,-83.890953,43.572011,Final,{C0915719-C18D-445A-8AF3-7F01712263E7}
-85.230935,44.1989580000001,22594,McBain Sanitary Wastewater Treatment Plant,Missaukee,261 North Cherry Street,McBain,48657,Wastewater,No,Kevin Wojciechowski,wojciechowskik@michigan.gov,586-623-2948,https://www.michigan.gov/pfasresponse/investigations/sites-aoi/missaukee-county/mcbain-sanitary-wwtp,-85.230935,44.198958,Final,{264C6636-4794-432B-A705-F88779D10006}
-86.287788813,43.9469609000001,23489,Mason County Sanitary Landfill,Mason County,"600 W 1st St, Scottville, MI, 49454, USA",Scottville,49454,Landfill,No,James Staley,Staleyj1@michigan.gov,(231) 429-1945,https://www.michigan.gov/pfasresponse/investigations/sites-aoi/mason-county/mason-county-landfill,-86.28778881,43.9469609,Final,{CBA4BDBB-98BF-47C0-8950-8BF4C9DE9FF0}
-86.372935452,43.3550032630001,24296, Former Fruitland Township Landfill,Muskegon County,"5281 Michillinda Rd, Whitehall, MI, 49461, USA",Whitehall,49461,Landfill,Yes,Matthew Pfister,PfisterM@Michigan.gov,616-485-7861,https://www.michigan.gov/pfasresponse/investigations/sites-aoi/muskegon-county/fruitland-township-landfill,-86.37293545,43.35500326,Final,{B38A0855-5FD9-489E-866E-5BB469AEAE00}
